school_id,school_name,school_email,school_phone,street,city,state,zip_code
1,Gerald Armstrong,za@mieti.fr,(985) 390-1175,Zodi River,Dabweru,NV,17933
2,Lenora Ramsey,ipbem@ak.sm,(778) 372-6930,Wijan Square,Gibkildo,MT,33520
3,Elizabeth Gill,soijoma@wusnewup.gi,(228) 819-8998,Bohez Pass,Uwduzuc,IA,30502
4,Luis Lowe,libwugki@obo.gl,(323) 971-9432,Zofo Grove,Obuowwiw,IA,51785
5,Derek Silva,puujakeg@soluzsej.tr,(403) 281-4563,Zopci Highway,Hewkihrah,NV,33101
6,Julia Lee,banjo@esuweuz.ee,(505) 999-3481,Wokse Heights,Ebtivja,NY,12639
7,Leila Owen,nof@hi.md,(652) 308-2947,Lisat Pike,Dugutpom,VT,11519
8,Lou Hopkins,pe@deflibos.lb,(656) 812-3438,Efegis Glen,Pedlilujo,IN,32260
9,Lettie French,ki@bool.pa,(336) 952-2305,Digud Parkway,Nepafke,WY,28559
10,Bertie Tran,he@mawnijrob.im,(270) 828-8021,Guze Mill,Edotija,MO,00603
11,Lizzie Carpenter,epaakma@nikzu.zm,(329) 481-5283,Ciwer Loop,Dulaja,NH,88115
12,Sophie Armstrong,jooki@ka.ci,(884) 964-8864,Polufe Grove,Bacgiez,VA,22692
13,Derrick Romero,id@ha.nl,(774) 812-7821,Tiga Lane,Kihegsa,CA,09696
14,Eric Alvarez,taup@ehi.us,(307) 983-6906,Vizeg Court,Ifiidziz,LA,58909
15,Ellen Ortega,gooji@avvi.ke,(718) 697-8003,Avewi Manor,Ifaurob,WY,31671
16,Ralph Bowman,juretbov@jahoc.li,(817) 399-4493,Dani Court,Esozeddec,SC,99145
17,Troy Morgan,okirazot@cor.ng,(661) 272-3568,Kufugi Pass,Ejboane,NJ,48387
18,Catherine Norman,pozrumfoh@dawfunlo.my,(482) 499-9580,Peefe Pass,Peicubos,AR,41801
19,Barry Munoz,kivkaro@nerrijico.pt,(482) 422-3561,Rirko Park,Ebcurte,MN,90968
20,Dylan Wilkerson,ropihsok@di.vi,(267) 693-7248,Ekci Loop,Juehijed,NH,98557
21,Kenneth Andrews,lelaze@wizam.vi,(435) 807-4033,Osiazi River,Pokejwo,IA,87278
22,Ina Duncan,fep@guci.vu,(870) 977-1978,Awola Square,Bigrani,CO,11697
23,Lottie Luna,hiwat@hi.edu,(308) 826-4340,Igur Avenue,Azsevmot,VT,14647
24,Rachel Hoffman,wacelot@efvo.ht,(330) 646-7998,Ehot Lane,Eluireuni,NV,36945
25,Jose Sanders,lelowon@ke.kz,(425) 986-9473,Alime Junction,Pizsijan,CO,82972
26,Lucile Holmes,adwutzuh@cuhovunu.wf,(754) 340-2704,Zirug Terrace,Puduef,WV,89131
27,Ernest Bennett,tew@wenvis.sl,(449) 413-9823,Kupi Trail,Nagwogva,MI,61154
28,Emilie Marshall,dolnecmic@obibauh.ni,(724) 636-1468,Zusud Point,Nepazrop,MA,97828
29,Mina Alvarez,zujpep@jabnu.ro,(711) 929-8106,Konmo River,Rifioj,SC,96582
30,Howard Aguilar,bep@jucgepik.jm,(259) 467-3345,Genves Place,Pelrini,MI,49738
31,Roxie Lucas,samilwog@hepreed.va,(771) 308-6023,Niav Road,Vujukjo,SC,60423
32,Katie Bell,sehifaf@beabwe.nz,(359) 963-8498,Wuvwap Street,Tamibcu,MS,42070
33,Emma Neal,gus@dirakok.tg,(360) 437-2182,Zomis Mill,Usitoddaf,IA,58623
34,Jean Wallace,puhuba@cancobve.tm,(865) 659-5154,Pishu Loop,Wumjohsu,NV,43945
35,Sally Delgado,wu@ujdu.com,(865) 631-7706,Cizuha Heights,Bekmain,MO,18577
36,Manuel Gibbs,to@zecil.ae,(526) 879-4939,Uhbej Manor,Luressuv,WA,51899
37,Owen Strickland,fedla@jionti.kz,(634) 431-7513,Ohbu Square,Mecoap,IN,81105
38,Elijah Holloway,tomuw@sa.vi,(848) 359-2099,Petov Manor,Dilhirub,MO,23014
39,Albert Todd,faklob@vo.es,(444) 220-3361,Rudiru Junction,Hekweika,IL,57784
40,Bernard Zimmerman,vejub@fer.ir,(714) 581-4425,Hage Court,Nihpibaga,CT,91108
41,Alma Howell,sec@vusilfin.mw,(505) 383-9762,Apiz Plaza,Nusicpam,LA,90281
42,Annie Dunn,lep@ujidot.au,(836) 817-8285,Nafa Mill,Gasapi,GA,96225
43,Dora Cruz,sid@sian.mg,(832) 510-7799,Jibin Lane,Miotzos,VT,90912
44,Violet Townsend,jus@ga.fm,(220) 731-6436,Uroor Parkway,Lotivi,AK,77384
45,Lucile Foster,gewifac@tutof.mm,(887) 518-8818,Urovuw Grove,Ozofesba,SC,52445
46,Randall Sandoval,sosoguj@ijaod.tn,(914) 817-2665,Ceode Trail,Ihestos,MO,64820
47,Emily Norman,verakdom@agcuhu.aq,(803) 405-4261,Rais Terrace,Gabmozi,NJ,10357
48,Addie Olson,fodjicat@cuaka.ki,(986) 888-2112,Vutmu Road,Ubfuwcu,VT,75066
49,Lulu Scott,waj@vek.mz,(777) 322-1512,Mawsep Manor,Abenehuk,LA,48727
50,Lizzie Hansen,zukaga@rapumfik.sd,(840) 398-3170,Bofku Boulevard,Gewsiduc,MA,68589
51,Mayme Wallace,burlo@rouwojel.bm,(443) 978-6677,Zostep Court,Cuzsufu,FL,20709
52,Katherine Leonard,cirekuh@vepar.je,(907) 673-9275,Wilnug Point,Ruremno,CT,41670
53,Shane Casey,tonvuh@mohkan.sl,(768) 984-4938,Ejisu Terrace,Tececaiv,HI,58705
54,Rebecca Bryan,harful@cusuc.ba,(723) 884-7926,Ipiuta Lane,Ocejiad,VA,53067
55,Hester Townsend,voto@rit.nr,(775) 927-5887,Papwi Key,Fifrohen,LA,07972
56,Gussie Gomez,seturpa@dov.ee,(618) 598-3444,Capon View,Lapunwu,NY,82885
57,Hettie Ramos,kahbipa@bahkaema.cm,(736) 620-6518,Roac Court,Uhjahok,NH,20814
58,Russell McDaniel,hetbektu@dovoco.ac,(973) 666-7445,Ajna Highway,Cadoun,MD,39545
59,Cecelia Herrera,oflov@mugke.sg,(743) 778-7368,Hereh Lane,Fuhovci,SD,16947
60,Callie Ferguson,sibihah@veabram.re,(916) 953-2480,Finoca Court,Cirazuga,NE,40030
61,Bryan Hawkins,men@vigubka.ug,(458) 551-1762,Jawoj Trail,Ikifiac,UT,71191
62,Fred Stevens,uf@vujciwni.zw,(589) 944-3780,Hudle Grove,Suluboro,LA,65544
63,Ellen Guzman,san@lartuk.ad,(735) 939-5117,Leli Pike,Ohoketdo,NH,89019
64,Jared Hines,siasaal@ojbosen.lk,(326) 365-7802,Zomon Square,Obieriso,WV,34374
65,Rosie Pena,avci@tofrib.is,(335) 694-4100,Fawja Terrace,Rutectac,AZ,42360
66,Carl Lloyd,movfubow@binupzot.ec,(555) 563-6836,Ojuri Glen,Jewifdo,TX,34319
67,Ronald Stone,agu@junkepi.mm,(985) 307-1198,Noaz Manor,Nodepta,ID,29135
68,Marian May,otdumi@keb.mt,(406) 460-3876,Evlo Extension,Nabetha,DE,64175
69,Ian Robbins,uvku@luhisri.cm,(656) 617-3777,Etgi Street,Nedagal,ND,60843
70,Annie Beck,ur@bufse.et,(677) 512-7072,Leba Trail,Joimcuc,WV,92692
71,Rosetta Shelton,pefud@fozelu.gm,(263) 727-5020,Ezulij River,Toruvel,MA,45873
72,Rodney Ross,somav@je.gb,(846) 722-5369,Hihce Grove,Hikbidpez,NE,68503
73,Douglas Floyd,fer@sip.ck,(623) 467-1119,Koer Pass,Zenpihre,NH,95989
74,Ola Edwards,ipafaeko@sis.sh,(580) 491-9839,Laczoj Parkway,Pofowuvuk,ID,85334
75,Phoebe Beck,bauho@lojut.gs,(654) 269-7713,Gujgol Turnpike,Ufigerek,OK,49364
76,Darrell Wallace,topuv@muabeus.mh,(554) 300-7565,Odokun Boulevard,Imkukma,HI,89003
77,Celia Ortiz,sab@diddi.in,(288) 894-3014,Akube Drive,Fikzepzoc,NY,05152
78,Phoebe Daniels,luhzo@unoim.bb,(869) 369-1816,Luruz River,Zeifke,MO,62472
79,Christine Vasquez,bap@da.tm,(828) 830-4263,Asipi Pass,Jecubvaf,CO,87865
80,Ellen Chapman,pe@jegik.jo,(436) 670-1420,Josreb Plaza,Nurzawoto,NM,75324
81,Danny Casey,rokgivij@vekbeja.ro,(944) 250-9572,Miuk Park,Vafate,ID,70886
82,Lula Woods,uhosi@datsisoni.mn,(406) 958-1893,Ufaju Drive,Wusnodwad,NV,94785
83,Matilda Rodriguez,osogenfa@rinecto.bo,(884) 799-6679,Ogvep Highway,Dusmocmuz,MO,45290
84,Maurice Griffith,fena@gumgalul.zw,(659) 447-1288,Lefbup Trail,Sogare,HI,95870
85,Ernest Brewer,vifpaava@ejhu.org,(707) 993-8676,Fuev Pike,Pilapo,ME,22097
86,Delia Fisher,ji@es.bf,(854) 967-6704,Socwan Key,Puonazot,MS,83242
87,Marvin Parker,du@maz.nf,(512) 770-6776,Ziser Manor,Fufzizim,WI,62158
88,Sophia Russell,nevow@jal.kr,(734) 638-8541,Agiub Way,Ukokaij,OH,99220
89,Willie Frazier,fun@asijuk.ng,(600) 319-5948,Macu Court,Kuadeza,KS,20096
90,Elsie Ball,unod@akagu.mk,(615) 562-4518,Futa Path,Jacomif,GA,18349
91,Isabella Wolfe,huv@tenac.ml,(354) 358-9697,Fuhe Extension,Aketuve,VA,19643
92,Gussie Rivera,zuric@puivovel.km,(607) 340-2888,Lojle Ridge,Dekohoz,OH,12793
93,Maude Griffith,dopkoaf@gemuhlo.mm,(373) 450-8058,Tiwtum Ridge,Sadzarip,AZ,33059
94,Susie McDaniel,fuvpu@pugnis.ml,(588) 495-2855,Veje Way,Listugej,OK,79084
95,Della Morris,pamu@tenma.kg,(517) 692-7539,Puje Road,Fipafaf,AK,85999
96,Steven Floyd,dijige@raz.fo,(501) 679-3705,Sipcol Square,Lasupi,NE,47438
97,Rebecca Lowe,matli@felazo.bd,(960) 902-6645,Rilis River,Veobudug,HI,18925
98,Lillie Moreno,mimufja@eduvu.py,(569) 949-2848,Curim Manor,Pevewa,KY,34316
99,Milton Estrada,lo@peuv.sl,(954) 761-8040,Saccif Avenue,Nolwejitu,NM,49272
100,Jason Stewart,da@lenwafdic.gs,(376) 871-8071,Gumda Key,Jihfake,AR,59084
101,Mittie Murphy,zibnit@ke.ne,(521) 771-4885,Zidbij Loop,Giwijvu,SD,46266
102,Isabel McGuire,jofazvoz@lab.wf,(386) 598-2264,Jurho Heights,Zecmuat,OK,07665
103,Lydia Rogers,avohot@pukaf.im,(758) 992-3939,Bejim Extension,Sifupocut,MA,56200
104,Tom Porter,rutzacpu@wa.nr,(239) 398-1717,Sesib Way,Moheiwi,IA,92924
105,Maggie Herrera,tafuclup@nu.pk,(461) 301-6824,Jepa Highway,Ideiwosil,SD,67033
106,Kenneth Schneider,egopuisi@jof.se,(984) 628-9563,Reru Park,Usovipul,UT,11333
107,Mattie Conner,cergasil@amuja.sa,(613) 235-8538,Apik Pike,Jatbetgud,AK,53727
108,Clayton Stanley,gabligup@juj.lr,(347) 756-3343,Mimka Ridge,Unueggu,CT,79458
109,Myrtie Craig,punaovo@hemhaule.cm,(963) 851-1379,Lifip Point,Efebegok,GA,40603
110,Gertrude Hunt,dulodehi@lozhuszok.st,(750) 545-8113,Enake Street,Koduopu,WI,55231
111,Lizzie Edwards,cisnagtup@fopsunnel.it,(480) 917-2168,Merabe Plaza,Hezkomud,NY,80148
112,Lucile Mendoza,sijdahluk@fandavza.ng,(401) 361-7819,Osku Grove,Nivijli,LA,70893
113,Hunter Pena,nuwhe@bibolwu.am,(570) 939-6312,Okelim Pike,Akgoag,CA,39225
114,Mario Colon,neki@agagac.uk,(766) 423-8255,Nouso Path,Undanmu,SC,78038
115,Rosetta Wheeler,dicre@nuzpawge.ca,(475) 985-7499,Luru Pass,Fudohsob,AK,94084
116,Cynthia Page,va@baga.nl,(807) 443-9143,Kemu Boulevard,Cavudiki,HI,01286
117,Harold Payne,jadtuw@ija.nr,(739) 861-3610,Lanir Square,Vinlugu,DE,63763
118,Cory Castro,la@he.mo,(745) 233-9021,Iwfi Turnpike,Udcohka,IL,98166
119,Lettie Ellis,pag@adu.cu,(238) 209-9460,Sokuw Center,Johdeif,MD,47058
120,Brian Willis,ujo@gaid.co.uk,(929) 897-2789,Jusci Boulevard,Lefnawrud,AZ,16277
121,Ann Estrada,ve@besbeapu.uy,(202) 213-3040,Cenum Highway,Homivper,CT,42135
122,Maurice Jefferson,efegi@abetaek.ax,(276) 910-2970,Vula Heights,Rujzidteh,FL,11634
123,Daisy Joseph,li@tondi.cc,(258) 355-5269,Odarib Lane,Hajefop,MT,38008
124,Ada Alexander,calrikko@kefvope.tt,(711) 385-3445,Cokwuw Ridge,Uwekoszuz,ME,83784
125,Glenn Mills,lasutet@akeco.mk,(927) 936-3915,Mueha Terrace,Lecokbi,TX,18301
126,Carrie Austin,wakloh@aka.mn,(418) 712-2226,Ezaz Plaza,Widbehjak,DC,40162
127,Ruby Hanson,daluncak@zetacvu.mz,(728) 362-3621,Eminok Court,Vurowgah,ID,53524
128,Frank Doyle,em@ci.tm,(762) 890-1273,Muwad Street,Bafjase,OH,84376
129,Ernest Warner,hohhikipo@re.no,(981) 881-5782,Vuko Extension,Usalezok,TX,20026
130,Harriet Hall,dif@gatalbi.ga,(709) 395-1550,Jafa View,Gujebnul,MS,90032
131,Donald Lamb,upuwekol@voguz.nc,(261) 505-7910,Tecu Circle,Gaetic,WA,01734
132,Tommy Anderson,cultecju@cowe.mr,(624) 695-8705,Opipez Point,Rugbuzef,NY,32528
133,Kathryn Chapman,piehfo@heajo.ws,(836) 812-5581,Ehokik Junction,Odurenin,TN,82299
134,Sallie Morrison,futdo@gat.pg,(453) 842-5223,Ithul Path,Sacbaaji,OK,11234
135,Georgie Tran,ahinel@fofazeja.gg,(642) 445-1998,Telak Pike,Ritradli,IA,35446
136,Lina Reyes,gonnuftuc@efmop.am,(981) 648-5160,Puhul Place,Wewinro,CT,38139
137,Rachel Burke,simamuk@sare.ao,(713) 676-1988,Terup Ridge,Itebuofe,AK,32163
138,Cameron Cohen,wiolbi@sokimo.na,(455) 550-6536,Atvaf Glen,Riesawo,OK,71583
139,Bobby Kennedy,lorome@woc.py,(650) 784-8008,Hezpap Turnpike,Uredahvat,SC,51788
140,Gavin Turner,hos@ighojvo.ki,(306) 440-3406,Bumfa Boulevard,Olabemca,OK,79473
141,Tyler Lambert,loili@jog.fr,(974) 731-1344,Mogcow Parkway,Ejdoni,SD,43676
142,Lou Figueroa,zu@mibo.pf,(937) 282-9442,Koumo Street,Cuciwo,OK,62305
143,Jane Delgado,towu@gomef.mv,(584) 874-3779,Jisa Circle,Mieriuki,SC,45366
144,Mark McCarthy,pigtok@etiruet.mq,(723) 968-5389,Hilu Parkway,Ruvbalad,CT,20836
145,Darrell Knight,cibwiho@hu.ck,(879) 384-3780,Hugu Manor,Ijesufav,NE,71870
146,Gerald Hodges,navuni@uflu.ss,(239) 292-8755,Leudu Loop,Gincikwew,DE,33849
147,Elijah Higgins,jihginaba@mo.mr,(571) 498-6239,Fezpar Center,Jommojwi,AK,85244
148,Russell Graves,sijhur@muzosju.cx,(305) 227-9621,Dawahu Place,Wowecoif,MI,59265
149,Ernest Douglas,ugukezu@ruv.ie,(586) 348-5906,Omdaw Place,Hadlufuva,ID,09333
150,Phillip Bowers,gujam@zur.fk,(944) 330-2056,Jisew Lane,Nikanere,AR,89147
151,Angel Jordan,ivus@kufes.gu,(845) 814-7192,Vedam Parkway,Vefnazhi,WA,53053
152,Sue Sutton,izro@pul.va,(488) 755-9334,Ohuba Way,Potamke,PA,65035
153,Laura Welch,zob@dalempi.gp,(460) 893-1886,Gigro Park,Pipune,LA,65229
154,Herman Manning,sen@va.bq,(538) 894-7293,Teazu Loop,Kanoula,GA,15055
155,Myra Morton,jufesmi@eko.td,(535) 949-5326,Ivolu Court,Obibizo,FL,29993
156,Ricky Campbell,rupezek@no.aw,(412) 251-1966,Titim Square,Emucoaj,VA,07064
157,Ruby Stokes,puisce@wolok.com,(407) 434-6103,Fito Lane,Emmidad,MD,35775
158,Hulda Hunt,av@piz.za,(800) 930-6917,Wobig Path,Besjiah,NJ,67961
159,Sophie Perkins,zatitasiw@moz.gq,(766) 823-7951,Gevji Boulevard,Silkodvij,AL,01826
160,Luella Briggs,le@zatso.cu,(704) 406-2294,Cober Junction,Piutsu,FL,42073
161,Katherine Robinson,pu@wor.pn,(843) 557-5066,Vapuvu Court,Suzuvwos,MO,33264
162,Logan Wade,es@uliveh.ht,(766) 627-1565,Zolkip Extension,Awmuofe,OH,93973
163,Elmer Vasquez,afi@elaarca.st,(949) 520-6200,Fiksi Street,Zihkutilu,NE,13354
164,Oscar Ballard,pa@fotgugcum.tr,(566) 905-2248,Sebi Terrace,Gikrolro,NY,44222
165,Sally French,cil@docooti.sv,(828) 752-3052,Ukwej Court,Jefoaje,ND,85183
166,Adrian Rowe,in@udkub.com,(280) 669-6316,Hopfag Turnpike,Minpizo,HI,08667
167,Marion Phelps,hohah@kad.bf,(275) 951-3680,Wiuwo Street,Kobnocsar,SD,38893
168,Nathaniel Gutierrez,uhi@debhugfoc.bs,(832) 982-5622,Rico Plaza,Bacepkot,VA,94321
169,Maggie Lambert,ubil@vuiloan.nl,(520) 321-6970,Jutjav Square,Opnotlar,MS,72894
170,Jack Houston,be@cur.kp,(408) 914-6364,Hinzij Ridge,Ukgopho,WI,75215
171,Maude Ross,jivki@duhuw.pf,(781) 869-6138,Usruv Turnpike,Ekokobi,MT,70657
172,Milton Schmidt,suosuwov@jez.mz,(819) 852-2209,Dinpuc Parkway,Ihogdew,MD,77261
173,Florence Watkins,ki@hofolgud.to,(362) 433-3133,Akuolu Street,Vedapzo,AK,31584
174,Jim Stephens,asevev@go.mr,(244) 879-7267,Puca Park,Pulvafus,VT,17860
175,Jean Doyle,rir@le.pg,(437) 248-5650,Apsaj Street,Nakujiwo,MS,56689
176,Emma Alexander,ib@jazotabo.tl,(431) 427-9518,Mumse Point,Wefwodjic,WY,84088
177,Lucy Harris,ruj@le.om,(902) 749-2585,Pihwew River,Aswijawo,AL,28439
178,Agnes Wood,pom@todalbip.lb,(364) 746-6624,Logul Trail,Ruuteli,VT,41107
179,Kate Parsons,dajogsuc@apurib.gy,(828) 879-7929,Rivhu View,Valeka,TX,55575
180,Russell Bass,vazose@to.hm,(381) 242-8016,Ehupi Path,Coavoca,PA,93778
181,Luella Parks,fa@ofvi.com,(802) 408-3220,Ispo Street,Ebaonko,MN,65515
182,Jayden Sharp,hepu@wozi.af,(756) 605-1271,Okaiso Drive,Civguat,MS,83229
183,Stephen Reynolds,apa@on.fo,(827) 923-9831,Gujbe Plaza,Zepcekum,MA,97011
184,Duane Cortez,fuv@miwupwiv.it,(504) 705-9769,Zezgab Terrace,Vocagakab,KS,66477
185,Anne Pope,faksej@fa.sd,(364) 211-1774,Tivid Heights,Wovodtij,CA,91565
186,Minnie Roy,izimo@ujumi.bh,(509) 495-9165,Weco Turnpike,Rilucmen,NE,49368
187,Abbie Houston,jivnora@ho.vu,(228) 768-1906,Secrim Terrace,Japlehor,FL,81241
188,Edward Sutton,urovelci@vedfojud.mg,(743) 840-3302,Netib Grove,Niwezne,MD,67865
189,Derek Strickland,ji@umeggo.ls,(960) 235-7098,Mina Road,Fetime,RI,31425
190,Eva Baldwin,teko@gatrarzav.lc,(215) 363-2528,Tebar Boulevard,Pubjite,OK,83496
191,Arthur Stevenson,re@pewigdiw.ec,(961) 445-2131,Zamo Heights,Sumwosut,CT,72261
192,Polly Pena,doc@cojahle.ls,(347) 284-4125,Hoso Lane,Azbewav,CT,14922
193,Ricky Strickland,zuos@kavve.it,(464) 252-7105,Haomo Lane,Olijewu,OR,95498
194,Alex Atkins,hu@soel.ne,(461) 770-3180,Gisni Glen,Uginorof,VT,13771
195,Thomas Spencer,pi@lirroboje.ms,(764) 678-5713,Savmaf Plaza,Miekahum,MI,83724
196,Marvin Young,cogjovge@aki.gm,(607) 310-8465,Joke Manor,Uclaho,AK,85611
197,Henrietta Peterson,besnas@anivues.vi,(544) 285-3695,Ovoze Path,Nuzfipi,OK,22263
198,Lois Dawson,wa@risujin.an,(502) 257-9550,Ijuwo Avenue,Piikuzi,NM,75343
199,Craig Bowman,tig@mijes.nl,(254) 438-6394,Fovoj Highway,Vuczutod,HI,72937
200,James Long,ujkim@ehonulur.ee,(829) 561-2538,Nipa Plaza,Haufiji,UT,85676
201,Leila Bridges,tihja@ja.sd,(801) 502-8146,Doruj Path,Edenufi,DE,90539
202,Jane Cox,git@wolbodjof.so,(246) 960-8094,Vawos Path,Goljodav,IL,10869
203,Ora Cortez,tuohu@zadij.qa,(716) 399-3145,Isutu Manor,Osienieh,NC,39407
204,Winnie Wilkins,gotu@koh.gov,(410) 536-7448,Enouz View,Kasaro,NE,88091
205,Tom Luna,ruvgop@zesetofal.ve,(427) 219-3665,Muhhe Key,Maicoor,MI,26533
206,Lou Hart,kuc@bu.bm,(874) 863-8683,Wonhi Extension,Ufnagtag,MT,60437
207,Victor Frazier,va@etannu.su,(814) 962-1394,Puznoz Street,Udasuzsu,DE,29852
208,Caleb Thompson,bupdaace@zieh.ki,(972) 809-8372,Enwah Turnpike,Wehfobsuh,ND,63927
209,Jessie Chandler,dalemu@japi.mx,(630) 938-9079,Getuh Pass,Wamaji,ME,67864
210,Brent Jackson,hi@gagino.er,(863) 474-4102,Ahar Drive,Bukutrad,AR,77523
211,Dean Matthews,nefela@izounefo.sz,(417) 488-5178,Hilgag Square,Ekesuvo,IA,52169
212,Nathaniel Briggs,perle@fu.fr,(608) 219-2378,Niwom Lane,Lusubvi,ME,27013
213,Kyle Caldwell,cosi@juwwew.hk,(976) 274-7805,Zibri Drive,Ijabawad,NH,20437
214,Michael Chavez,bomezoki@ofenovade.au,(401) 989-3192,Tikipe Parkway,Hedladov,MI,73347
215,Lula Santos,co@zatepi.la,(871) 426-4475,Mosen Mill,Ropdiran,NH,13702
216,Brent Pope,dihgazce@sejighi.az,(506) 839-4385,Ejefiv River,Mihuale,NC,02409
217,Ola Moran,hocni@wiciw.gq,(332) 567-8723,Dezve Turnpike,Efrunavu,NE,02802
218,Dustin Pratt,ijulo@gunsiphi.km,(571) 578-5237,Mismob Parkway,Lusotovul,MI,95474
219,Linnie Herrera,ci@zo.wf,(943) 927-2364,Ulaac Square,Gabocsaw,HI,53440
220,Brett Garza,kaso@hop.mt,(716) 957-2245,Ipuev Point,Diajka,DE,60062
221,Christopher Griffith,vec@ozre.sl,(854) 745-6654,Ogje Way,Depcetot,NH,46029
222,Bryan Jimenez,uhvanjuk@nuhe.mu,(212) 897-7984,Udana Park,Guikbi,DE,88015
223,Maud Poole,wo@ruz.ax,(367) 333-3998,Sucgu Path,Wopatwu,DE,78473
224,Anthony Howard,fohefades@gimejte.org,(228) 554-9345,Egujuz Ridge,Fegero,PA,16558
225,Nina Reese,ipaabpab@ketefzul.kp,(374) 744-6109,Tetwe Lane,Mitebi,DC,94945
226,Lou Hubbard,ahiako@me.km,(857) 818-7535,Keze Junction,Fucizic,AK,42889
227,Mathilda Thompson,di@teg.cn,(253) 636-5804,Powgov Path,Heklocsa,IL,64051
228,Kathryn Martinez,cijkil@mo.tp,(613) 613-8230,Jeal Trail,Jeovebu,RI,29213
229,Theresa Warner,kedizhu@ipefu.so,(424) 736-5994,Tamku Park,Tofitnof,TN,47532
230,Madge Mendez,sabhuzug@tesuljer.rs,(541) 452-4212,Zibgu Square,Baentuf,PA,85987
231,Grace Griffin,zu@tonedi.so,(459) 975-9159,Rivop Extension,Vuhtawfu,NE,53449
232,Erik Lopez,opabizlab@rete.td,(687) 297-7677,Seblin Parkway,Jovwicu,TX,73231
233,Elnora Goodman,kotome@kuanma.qa,(377) 603-9367,Goruj Path,Vofraci,TN,51562
234,Bessie Berry,cec@pes.mh,(820) 539-3171,Udzil Pass,Teuwulil,KS,72857
235,Helen Silva,zuhdum@guh.ne,(652) 250-6377,Tekob Square,Witevsuj,NJ,60870
236,Rosie Murphy,bubeav@enapiz.gs,(730) 420-9483,Noif View,Wusufakos,HI,69521
237,Shawn Newman,enlisor@leimmes.ke,(405) 560-1133,Ipkeh Lane,Paeget,DE,45447
238,Shawn Wise,hokhikmo@hotig.kz,(840) 854-9925,Vuhmun Manor,Tirabom,ND,87181
239,Hettie Brewer,jecagu@downoweba.ws,(719) 721-3643,Zivvan Highway,Mijgetlor,NJ,80570
240,Helen Wilson,zib@loccursem.lc,(986) 358-9189,Giaw Trail,Kulipdap,MD,50468
241,Ian Elliott,pomdathuz@tum.tr,(366) 598-1178,Zekve Place,Umzobes,MT,23612
242,Luke Kelly,pojiko@pevfava.bm,(459) 575-1686,Widzum Avenue,Awunofa,WI,89961
243,Pauline Long,anipefug@sawtedpe.lr,(206) 754-5951,Vuca Glen,Ufonojuj,WY,25024
244,Dennis Pierce,zivege@nabgallip.zm,(436) 303-7694,Abaiz Highway,Howesam,OK,53921
245,Ronald Munoz,fucdom@locazuz.tn,(481) 225-3261,Ivasez Highway,Julahaj,KS,71650
246,Logan Patterson,ufemuva@hul.sd,(709) 457-6108,Joalu Glen,Kocova,WY,55965
247,Rosalie Hughes,otopunnip@lawjo.ae,(640) 599-4670,Jueg Pike,Nahiva,WA,19776
248,Warren Frank,ma@iv.gr,(781) 945-7124,Guli Pike,Pomihup,MD,15219
249,Julian Bridges,ges@ogfow.sm,(671) 358-5101,Irizo Extension,Jehjiuge,AZ,02024
250,Philip Lopez,gewo@dakfakti.na,(204) 576-7737,Luhu Key,Madejat,NE,45154
251,Georgia Johnston,re@petpoesa.ma,(930) 510-4581,Gidcac Point,Moznidgoj,SD,50130
252,Blanche Stone,tinu@ro.bq,(407) 461-5221,Joravo River,Neukru,TN,05543
253,Ella Oliver,mejutiosi@tijmuv.bb,(905) 497-7671,Dimi Terrace,Worlefi,OH,43621
254,Mitchell Soto,hef@tardaf.rs,(239) 915-4762,Gisgo View,Iboidire,DE,70169
255,Philip Hart,sivolubuv@harjug.gw,(724) 682-1703,Gihij Pike,Afguvpif,NH,68690
256,Christopher Reid,suheizi@ibusop.kg,(833) 448-2122,Medni Loop,Peforiw,VT,96175
257,Glenn Barber,os@decagof.mh,(807) 461-2497,Wavo Highway,Zavunma,TN,42330
258,Dorothy Fleming,eba@ur.ad,(748) 261-9411,Vasko Center,Waomezaw,AL,91282
259,Leila Morgan,ke@asu.ge,(888) 756-2324,Vuhut Point,Vowfivi,NY,92209
260,Bobby Castro,numav@icaravik.hm,(653) 838-7632,Mecu Junction,Jumhevgi,CA,93357
261,Sean Copeland,hir@ra.gh,(915) 864-8607,Usuta Lane,Ufpiwaw,HI,85646
262,Evan Grant,worzez@goatibu.bq,(529) 283-3567,Caij Extension,Ponekmeg,SD,30437
263,Bertha Watkins,rew@ahejokef.to,(800) 523-3793,Huveg Pass,Tagcabid,UT,84025
264,Stanley Knight,ju@tik.aq,(566) 575-5935,Moisa Point,Mevbumjec,ME,86469
265,Lois Smith,mihosi@kutwopug.gi,(634) 398-7535,Zine Turnpike,Buwufuc,KS,73371
266,Lee Ferguson,savmaj@jatanvo.gq,(884) 442-5462,Wuzew Extension,Roicdez,NM,35891
267,Bill Leonard,nec@ac.org,(446) 628-1095,Jiko Trail,Gocgiluj,OK,63617
268,Olga Brown,vifebwa@cunsekif.si,(331) 373-3640,Zoti Parkway,Rajevi,DE,01232
269,Minnie Santos,edsa@mobcanbo.tj,(835) 849-6316,Ibgon Extension,Lifani,WY,25665
270,Calvin Nash,ke@ba.hn,(201) 390-9016,Burruh Park,Maadbe,KY,70630
271,Brett Dunn,uszuksum@vowca.jo,(245) 683-6591,Ukuve Pass,Riwiccus,MA,46600
272,Lucile Bridges,pofufu@napwot.ps,(743) 298-4827,Kovko Parkway,Sivekkol,NJ,85998
273,Elizabeth Turner,depsano@nomoc.uy,(224) 452-4601,Udeku View,Cunkupuj,WV,89395
274,Shawn Pratt,kuvo@lesucpa.my,(307) 344-7576,Ocvu Turnpike,Kurivil,IA,62067
275,Ernest Ward,zicfo@jejdeid.io,(284) 543-2421,Siba Key,Sartevop,OK,00442
276,Hilda Walters,puwite@gifnugci.io,(675) 655-1160,Woda Pass,Areetore,MS,10899
277,Curtis Blair,da@pocedug.af,(722) 389-2502,Ladu Mill,Maknudve,LA,87968
278,Marcus Lawson,pokwu@badured.mt,(875) 619-2569,Guzet Mill,Cidoow,KS,19035
279,Chad Hart,zi@ki.gi,(701) 278-5439,Epzu Lane,Donfivoj,OH,95154
280,Harriett Reeves,bamcak@lorzet.es,(753) 400-2229,Mefed Key,Varkisro,IA,85226
281,Milton Roy,cesve@dop.bq,(881) 731-9607,Sizmaf Avenue,Ratenes,MO,85593
282,Johnny Gregory,de@tetoca.co,(858) 844-4262,Bosnu Pass,Hizamron,WV,89674
283,Don Oliver,jagmir@te.ng,(541) 789-2914,Jazrup River,Dortibe,AR,97266
284,Amy Santos,obo@figuse.ru,(739) 969-9640,Apajo Loop,Kimenzew,NC,70115
285,Jerome Berry,mebfodsu@zidevka.ke,(523) 266-1765,Cuwi Manor,Tugundi,WV,62005
286,Curtis Grant,gawi@wuw.tm,(906) 966-9017,Gajiv Terrace,Amajulpa,TN,10976
287,Eunice Allison,gulhon@lomajzu.sm,(244) 304-9259,Reefi Path,Usfavev,LA,55042
288,Herbert Lamb,kaku@cufune.de,(551) 424-4279,Kimog Ridge,Bemnijbam,NH,92409
289,Sam Cain,vehtaun@jah.al,(687) 310-7399,Focbag Mill,Leflehcos,IL,88297
290,Frances Davidson,fib@ewju.ps,(857) 370-6185,Mazet Court,Japesaj,WY,32042
291,Milton McDonald,zez@mihembe.gs,(659) 586-1546,Hobfe Parkway,Wilojju,NJ,99574
292,Maggie Fields,uco@purafbe.rs,(444) 343-3710,Rohak Lane,Pigvoeha,NJ,55347
293,Mason Wong,ufno@ka.gs,(748) 221-8808,Ocorig Ridge,Oldocot,IA,15220
294,Rosalie Bowers,vep@rasavhe.cw,(446) 236-2633,Sempuc Path,Nuuwahu,MA,25910
295,Kyle Guerrero,jewnavko@galomedo.sk,(957) 777-2136,Huzus Road,Weebkic,NV,45152
296,Mike Sharp,bivbahuv@pi.ao,(465) 780-5764,Amnov River,Cegugehi,MO,44663
297,Alejandro Dennis,mitsirju@efemim.vu,(604) 391-8186,Wigot Park,Motedve,WI,27959
298,Brett Harper,od@zazov.gy,(264) 874-4537,Haza Center,Kealren,MT,72757
299,Lizzie Erickson,ihijamhaj@mef.az,(225) 236-9339,Keho Loop,Wenzazfi,WA,68161
300,Iva Townsend,pilgiuga@wam.si,(244) 489-4249,Izudoj Turnpike,Zukamma,SC,45974
301,Jordan Bishop,levgoj@fuzap.an,(344) 876-1020,Uwku Street,Zacdeco,FL,78524
302,Hannah Moore,mutogu@vehopjuf.mo,(747) 229-5827,Potnip Grove,Munuidi,CA,88923
303,Jared Ortega,saj@inooga.sz,(661) 933-5500,Dadpan River,Cemibag,OK,88996
304,Nannie Mathis,ri@amekolcu.zw,(933) 611-3703,Esmo Junction,Erojeneb,DC,42736
305,Ina Richards,iziwiz@nenic.ma,(443) 659-5019,Onwe Terrace,Cazmutap,WV,91281
306,Jon Tran,dar@ci.lc,(756) 542-4103,Puze Point,Woirbef,DC,96017
307,Randall Fleming,vifizdur@kecouj.mp,(775) 852-9695,Vehow Road,Aculevum,FL,61922
308,Charlotte Drake,miwkazob@sugkov.tm,(557) 286-1164,Hirifu Trail,Obtocuf,NJ,23697
309,Sallie Terry,tuce@sablukde.gy,(839) 972-4914,Eput Grove,Efjucji,MA,88888
310,Eddie Burgess,pasus@degioc.io,(789) 696-6497,Gucgok Extension,Vewrikdap,WA,86333
311,Raymond Nelson,rub@het.gov,(215) 306-9493,Pihzo Lane,Zuulebu,NE,85123
312,Herman Austin,cun@azeor.cl,(234) 988-6669,Elbe Manor,Dossunwil,LA,05188
313,Leo Hansen,bo@ji.ng,(702) 606-8413,Towir Point,Tolfubkik,OR,13934
314,Adele Woods,seipobe@row.mv,(369) 630-7057,Mogvu Terrace,Fawejak,MT,81815
315,Eric McCormick,hol@bomo.sz,(680) 420-7366,Zaat Junction,Tafiso,RI,41887
316,Rhoda Tate,obuhekci@zika.cv,(467) 992-2389,Tegeg Boulevard,Kumemso,RI,35518
317,Brandon Brady,falorun@vakibke.ss,(921) 934-2890,Coif Place,Imorafah,NJ,68834
318,Rebecca Frazier,moozu@va.kn,(205) 864-6841,Vezdew Place,Bizejdi,TN,64372
319,Alan Wells,molhuzzis@fo.lr,(965) 343-5765,Owezaz Junction,Runisnan,NV,19765
320,Belle McCoy,fetemoh@ciwacsu.nf,(529) 784-7348,Lahof Key,Howoana,NH,62898
321,Daisy Caldwell,hofaese@wo.tm,(454) 946-4992,Fadje View,Ducaama,DC,18233
322,Edwin Curry,luhe@maguti.sg,(279) 219-5183,Nucbu Lane,Turmucum,OH,94256
323,Rhoda Harper,opuho@dil.us,(821) 490-6561,Rice Mill,Panesuvi,NM,53151
324,Billy Bryan,wabitoj@kuwca.kp,(620) 443-4010,Acurew Road,Lacrujaw,CO,51138
325,Maude Schultz,nifar@sugomako.nc,(785) 736-7160,Zuluz Circle,Tavredfo,CO,61690
326,Terry Welch,wirzeh@ehjuvban.net,(862) 807-7728,Eptin Pass,Wuwvanek,VA,59563
327,Harvey Edwards,bifzudab@bihi.kh,(816) 241-8153,Jukna Mill,Tacikew,RI,12311
328,Randy Quinn,paawo@res.sd,(472) 645-2339,Numoj Manor,Wehopiv,DC,57810
329,Derek Lee,reku@naznol.ec,(507) 871-2965,Tijil Point,Pesacu,UT,79232
330,Hunter Walton,jog@kopzoeta.mx,(763) 982-7157,Liva Avenue,Liturek,KY,20194
331,Linnie Hopkins,sagmow@ap.sm,(748) 851-3663,Kotiv Drive,Zoreafa,WA,59501
332,Mae Parks,jen@wukvudad.at,(610) 376-3797,Mujri Circle,Tadioka,NH,81553
333,Lucy Miles,ka@log.gb,(964) 887-4119,Rate Loop,Dubhapep,GA,08231
334,Fred Webb,abruhe@ekevi.fm,(480) 820-5386,Idaco Lane,Sapakas,MS,69686
335,Willie McKinney,conkakhan@najsolegi.mg,(762) 416-5189,Izlur Point,Dehrimpu,IL,69009
336,Maggie Barrett,eh@komugfi.bq,(669) 270-6218,Dejor Path,Pijzafug,DE,48090
337,Noah Stephens,va@rumomeri.gt,(310) 374-9389,Keuz Turnpike,Serliup,CA,64457
338,Duane Patton,dotjer@livomsuk.as,(204) 498-4825,Sormi View,Tafalgih,NM,51684
339,Irene Caldwell,vaaz@pasepis.sg,(439) 648-4773,Uksu Glen,Mutkelwo,DE,82373
340,Mittie Banks,bumo@couni.er,(828) 784-3771,Cevec Point,Ehutajpum,DE,70368
341,Hulda Huff,rasi@li.vu,(481) 330-3265,Kinow Way,Werafa,OH,49138
342,Isabella Rose,zawnopra@em.gy,(984) 383-9504,Zupfa Place,Copelza,MT,94828
343,Ethan Becker,geren@vazamhu.lr,(842) 577-7334,Joktuz Path,Heisaho,CT,11669
344,Harriett Gardner,je@fakirmo.do,(621) 290-1931,Tapu Place,Nawipof,KY,78512
345,Daisy Jacobs,pekmus@wek.tg,(769) 915-2886,Nutdi Way,Kurenfig,FL,90116
346,Madge Watson,ohebillor@afiku.ls,(941) 989-2466,Ipbum Glen,Tehniheg,CT,77245
347,Daisy French,tocahe@pejoobu.aq,(283) 401-5276,Mobkal Road,Afsudih,WY,31328
348,Mabelle Day,ek@sifok.ee,(212) 517-3043,Gosaf Park,Mekuder,KS,00200
349,Mina Atkins,cib@ta.im,(428) 681-7005,Caec Turnpike,Obocikke,NJ,68488
350,Ruby Holland,rodeglu@hihu.gg,(528) 323-7307,Bieh Highway,Ujujowgac,MA,30347
351,Rosalie Wade,ociwuos@wakoej.cz,(321) 725-6980,Jalu Way,Ratgetzon,MA,50758
352,Gavin Reed,voeciube@egu.sv,(840) 811-9706,Kage Path,Apoluliz,ID,97525
353,Patrick Dunn,zol@tojegsoh.lr,(550) 716-4621,Camu Junction,Fireocu,MN,54111
354,Franklin Copeland,mod@lobowiz.ie,(418) 998-2360,Gunlad Terrace,Werelhol,SD,92664
355,Allen Allen,diuta@herupi.ni,(839) 255-6523,Uwjeb Pike,Udgeaw,MD,68810
356,Bradley McBride,lajbiv@zo.gd,(414) 594-1440,Haik Loop,Logpoadi,NE,81922
357,Amy Sparks,sotiege@ceta.cc,(457) 888-8316,Zool Path,Imjebig,WA,06391
358,Esther Mills,op@wecijo.bv,(856) 502-2304,Ovihi Key,Lijneltej,TN,88342
359,Joshua Fields,metkaaci@ma.sy,(548) 685-7566,Izefo Plaza,Mogenje,KS,82610
360,Cameron Newton,socefje@bumjewjap.tz,(900) 765-6125,Dipeni Highway,Jictegtu,NV,24856
361,Lela Tucker,fidiniar@bu.net,(487) 368-7687,Varber Center,Hagowic,SD,38941
362,Hester Jones,tew@uktewnem.uy,(332) 865-9132,Kuzow Point,Loszonje,TN,00715
363,Ina Kennedy,hon@tagjil.by,(389) 359-9532,Ufesir Circle,Edwuaju,NH,66033
364,Darrell Reese,afo@van.tv,(249) 372-5536,Kiwo Way,Weblaede,TX,86627
365,Theodore Erickson,magva@opmomtuw.il,(915) 736-2672,Lutzo Lane,Afubeluw,IN,82499
366,Edwin Quinn,iswi@ivle.rs,(416) 645-9304,Sawful Road,Wesifru,VT,11706
367,Ernest Mendoza,obosak@vogog.pf,(459) 303-8748,Malwik Loop,Japevug,NY,94517
368,Cornelia McLaughlin,teccaron@hodhidhuw.kn,(945) 627-3309,Cejama Extension,Ifohiwuz,NJ,68932
369,Lura Huff,iwe@na.fo,(619) 521-2412,Buno Point,Lunivci,NC,89906
370,Calvin Stone,vebwil@vavizhi.gg,(814) 473-5865,Fosu Loop,Madasa,CA,99902
371,Ethel Gill,hivesse@podi.mz,(709) 292-4478,Kode Extension,Gubidro,MD,96656
372,Lola Atkins,soeco@ezaebaon.bw,(688) 965-7152,Fomdag Circle,Jazwocbu,IA,30933
373,Tyler McGee,wawgaib@wejoz.tt,(615) 696-7353,Ufebu Terrace,Lufruwa,NH,19980
374,Bettie Walters,homfe@ba.qa,(660) 909-3920,Rigada Grove,Hetseas,PA,41851
375,Brandon Roy,covud@titefdup.so,(441) 389-5104,Dejgi Parkway,Abufoki,SD,82954
376,Bradley Burton,rutfoz@gebwo.bf,(210) 778-5803,Zijoge Park,Ijicaldis,NM,38423
377,David Graham,ris@umigo.ki,(371) 946-2982,Totib Ridge,Lerawoc,ID,37359
378,Mollie Christensen,lez@fuz.sg,(682) 788-2878,Foso Plaza,Bupmoccid,OR,98159
379,Teresa Nunez,lalohuj@wod.ca,(381) 797-7089,Hipgac View,Jipawura,AL,12681
380,Jacob Pope,zacetnuf@mi.sa,(821) 974-3968,Duhum Terrace,Dapolu,KY,37695
381,Dorothy Burgess,puzo@jafaz.gn,(478) 301-8515,Utdu Avenue,Sarcurmiv,SD,03497
382,Keith Norton,toah@ope.np,(973) 660-2090,Juceco Mill,Womrice,MT,11760
383,Anthony Gomez,refja@soheb.eh,(705) 651-2261,Enobi Parkway,Kifziev,ND,06514
384,Stephen Craig,kaun@lir.fi,(774) 370-5292,Tuuw Highway,Moglasuc,WI,85503
385,Celia Padilla,bazamfi@ivopu.gq,(533) 203-7764,Limem Road,Enjiwec,GA,39596
386,Florence Porter,fohi@wopaw.an,(512) 996-1907,Bufdi Road,Cotopoc,AK,09403
387,Caroline Harper,ec@polov.al,(937) 471-3526,Podig Plaza,Johgazas,NH,15033
388,Alan Black,liper@atizuja.mp,(681) 384-6423,Nemru Pike,Gefjuzwat,IL,64194
389,Jayden Walters,me@ho.pm,(714) 794-5657,Mabed Plaza,Sigojvul,VA,22179
390,Raymond Barnes,upuopece@izavis.br,(605) 711-6952,Lovo Boulevard,Rielhiz,MS,63721
391,Mitchell Bates,zoset@rirup.ke,(726) 668-7857,Jobeb Junction,Guktuvlo,KY,88250
392,Nicholas Baker,lutha@mu.cc,(211) 802-8337,Ihenu Loop,Mukworezo,NC,93172
393,Sophia Collier,uscu@rephi.gs,(700) 335-1167,Turol View,Hetewjeg,ME,21040
394,Leo Wright,jin@casamsis.gf,(938) 622-1990,Hizot Plaza,Ivdalin,GA,45875
395,Arthur Buchanan,sapzog@mof.as,(811) 952-4846,Nipomi Manor,Jekidre,VA,34619
396,Noah Griffin,magfo@eliha.ky,(956) 985-4343,Dupor Road,Caetlut,MT,51915
397,Clarence Mack,jidmil@fowjaz.cf,(964) 552-1851,Fegbul Place,Sugvermow,NH,80104
398,Nelle Myers,okonav@funsiwo.cv,(239) 515-5042,Pubi Highway,Moohapa,OK,79781
399,Alvin Hampton,to@guojrut.li,(740) 259-6527,Dimup Pike,Mafagil,AK,07519
400,Dominic Poole,ow@koh.pn,(915) 474-5491,Vasot Plaza,Fozosgo,ID,70423
401,Louis Hernandez,ne@vufasif.dm,(962) 732-8939,Lakode Grove,Dafebu,RI,74218
402,Glenn Rhodes,luwfeda@vobape.by,(839) 601-6538,Viwali Point,Ogupitzu,NM,17813
403,Micheal Strickland,zazal@wuhe.ad,(338) 967-9637,Beruz Grove,Muronulo,AL,28704
404,Mario Bell,sazimuj@bo.ba,(542) 739-2170,Uzeni Manor,Jusugahe,OK,31879
405,Daisy Murphy,limoga@ejpiob.gi,(762) 791-1851,Ternu Pike,Agieglul,AL,66911
406,Chester Ellis,uhuginhus@wodwuc.lv,(604) 739-2753,Huro Grove,Nusehdu,MA,23129
407,Cecelia Marsh,nazsogvuz@ah.ky,(618) 761-8351,Epoad View,Molacuveb,UT,09079
408,Thomas Nunez,eh@di.tl,(381) 807-5721,Fifi Ridge,Gecigi,DC,59850
409,Cecilia Palmer,javiwu@uwuz.ac,(564) 525-2725,Ridir Heights,Venhofiz,MN,31656
410,Bill Lowe,kofco@medo.aq,(452) 628-2940,Hindel River,Ziztegos,TX,78034
411,Ola Atkins,juagbuj@vivus.be,(722) 739-7041,Gumwog Turnpike,Casihit,NM,61997
412,Francis Holmes,remagur@ticneco.gg,(576) 719-7855,Dufa Center,Uczingi,MN,09518
413,Lester Hawkins,siade@mopneho.be,(288) 396-3904,Cilri Road,Tilcojki,MD,62609
414,Elva Hammond,vawikole@lude.is,(352) 652-9025,Tibrak Pass,Fisguuve,FL,92951
415,Eric Abbott,wadu@de.co.uk,(282) 731-9824,Bier Parkway,Ondena,ME,08954
416,Dorothy Tate,tubbisol@ege.hn,(540) 253-2579,Zopoj Court,Foojita,IN,35129
417,Leo Flowers,jevosta@gok.sm,(407) 237-9548,Rugov Trail,Cawdujlu,IA,35044
418,Ola Griffith,bebamju@jebebe.bt,(929) 209-4598,Ohgu Pass,Hujnidis,DE,86877
419,Rosa Barrett,warusohi@agwan.fj,(959) 208-7740,Waza Pass,Obiipkap,VT,48681
420,Helen Ortiz,ijak@pouripe.sn,(314) 505-1771,Mivpos Mill,Gemceha,HI,52081
421,Esther Logan,fupes@irad.td,(587) 211-7651,Okuvad Road,Haidpes,TX,18645
422,Samuel Greer,era@wekestuj.as,(661) 321-3695,Edosus Center,Dufodli,OR,96434
423,Andrew Stevens,su@je.cl,(825) 938-1988,Hovo Way,Jowgalzi,MO,63881
424,Polly Peters,picem@aso.am,(931) 909-1270,Uruef Center,Pubwugem,IA,16869
425,Joe Shelton,uci@dov.al,(801) 869-7803,Ozuhip Boulevard,Kefsicop,GA,41679
426,William Clark,nirapse@emzujuz.ni,(925) 535-6414,Cudwod Ridge,Zufsukuk,OK,90791
427,Evelyn Evans,rougi@okaanito.kh,(207) 380-4773,Degub Grove,Mabozva,PA,63283
428,Henry Ortiz,nodrozku@nanoto.la,(611) 989-5449,Kasa Avenue,Adoculko,OR,89639
429,Jared Oliver,waczak@odlaz.td,(872) 813-9518,Pewadu Extension,Fagribe,ME,22762
430,Lillie Dennis,kem@je.va,(881) 283-7072,Nohlu Highway,Wunudcal,IN,01940
431,Isaiah Warren,dotki@av.cf,(583) 400-4221,Lupuk Drive,Tidcolzec,SD,81396
432,Kevin Andrews,emfar@mieg.tf,(205) 792-4405,Rief Street,Modivmo,WV,66149
433,Steve Griffith,ivecisdi@ujeofi.uz,(522) 397-2524,Obwan Mill,Cadvekofi,CT,71658
434,Bernard Turner,hit@sipovpi.np,(245) 766-8514,Jiman Way,Teohiki,NM,28810
435,Chad Parker,gefwa@heusa.as,(202) 959-5220,Gibniz Plaza,Origefetu,MD,65900
436,Ola Clark,lati@ovi.py,(820) 693-5270,Cufsec Place,Almiku,IA,48486
437,Sophie Harrison,gog@fomad.sk,(654) 915-9341,Facmop Loop,Valabwil,AK,22776
438,Lida Hunter,oz@ikfiz.ma,(826) 524-1646,Jilo Center,Gonmevo,AK,56646
439,Floyd Simpson,lellel@leuwrub.ge,(300) 516-8702,Zeab Path,Ulinifumo,NE,05071
440,Fred Lynch,jos@ecmiew.sd,(420) 746-5959,Idmes Center,Rihultu,TN,66979
441,Curtis Riley,kemo@lak.si,(561) 730-2620,Nekko Junction,Kufwigpu,IL,68548
442,Elijah Valdez,vuoh@lomarug.cz,(462) 867-2261,Benwo Pike,Nimabde,PA,08580
443,Trevor Obrien,belnasu@ejukade.li,(781) 343-2138,Hunlu Heights,Siwsire,OR,48315
444,Kate Lloyd,uvaciat@vuwse.org,(354) 671-4693,Wabwom Lane,Zaujsu,MI,66510
445,Milton Foster,zoncizi@etfocwu.ar,(850) 963-6032,Powe Drive,Iwuembin,NY,10452
446,Manuel Norris,gevob@nunuw.ai,(732) 566-4565,Sivci Parkway,Tedliwu,MA,32641
447,Warren Mason,guputmet@uho.ch,(508) 310-3363,Ahmik Pike,Beuzmiw,SC,76857
448,Ronnie Jacobs,kinceja@higgibo.au,(729) 312-1928,Paneb Way,Fojpurhep,SD,88343
449,Roy Kelley,eg@degmid.bo,(402) 560-3049,Remjis Center,Abdaveki,ND,07576
450,Dennis Barker,peloz@ozunafra.ve,(835) 521-8473,Puje Terrace,Ehfaav,MO,46653
451,Owen McGuire,cernoral@horir.hu,(823) 742-2143,Perah Loop,Medutoso,AK,25295
452,Lillian Higgins,cedul@ha.aw,(667) 813-2820,Kikvu Heights,Ibelilji,MA,38173
453,Arthur Arnold,lakliwu@cawma.ck,(386) 866-4836,Galta Turnpike,Faocosuv,ID,43319
454,Eliza Williamson,halidoce@ebi.td,(709) 545-2187,Azuowe Place,Batpebpu,ND,41237
455,Dollie Estrada,gez@acnefvod.th,(714) 449-7421,Pafjum Street,Egomema,MN,25643
456,Hannah Hammond,bupwe@ratir.ax,(957) 631-2968,Nerhe Mill,Cunpezcik,OH,16083
457,Harriet Ferguson,toggujob@du.gg,(269) 808-3464,Saisi Key,Buwbofleg,NH,08459
458,Sean Marshall,sefnecuw@kiub.rw,(847) 462-2426,Raso Manor,Norewma,SC,76367
459,Chester Cortez,eca@cuk.ps,(321) 958-4423,Pirine Plaza,Judutu,FL,62616
460,Grace Davidson,toewjop@ef.bi,(369) 868-9992,Emsa Street,Lakcuzuz,HI,01694
461,Ophelia Lloyd,besuw@oma.me,(915) 554-6425,Refaf Grove,Conwevno,MO,29360
462,Alan Hammond,dopmiot@tumu.gm,(960) 394-1823,Awora Place,Luheosa,MD,14829
463,Ruby Delgado,fajka@hajce.vu,(653) 324-8614,Owenoz Parkway,Vuzrogvi,NY,08112
464,Mark Holt,dahkutge@han.ro,(528) 954-4637,Ehuna Avenue,Kodiel,SD,06833
465,Louise Diaz,bupjob@ehaina.re,(235) 496-7850,Poap Loop,Mudugec,KS,56724
466,Lenora Fitzgerald,kigor@piduphe.ec,(811) 829-7640,Fefip Junction,Lebepak,OH,15171
467,Amanda Christensen,vagi@cakak.ec,(467) 708-3026,Siwiva Street,Jodzezcot,TN,47752
468,Lottie Watkins,uhigaule@ohroruf.ls,(639) 635-3599,Koawu Turnpike,Kelesfo,IN,20173
469,Myrtle Webster,bi@nu.fj,(614) 736-2260,Osdi Extension,Zisegi,IN,56696
470,Roxie May,tetovu@kan.ma,(201) 959-4159,Zizhav Park,Wajtojcut,CO,43936
471,Bernice Rowe,baz@korcu.cf,(704) 584-1426,Bani River,Dabawak,MO,96308
472,Bernard Carpenter,wefo@din.wf,(678) 302-1173,Towgul Point,Abrejmiz,VT,78119
473,Amy West,tit@fu.in,(880) 818-1428,Tajjiz Road,Heezzar,KY,38382
474,George Greene,wen@vutfut.gq,(434) 653-1391,Dopsi Trail,Sulwoga,MA,06447
475,Nell Maxwell,zam@suncet.ca,(614) 587-6869,Cawuda Heights,Getago,LA,90177
476,Ivan Knight,sep@kabodic.de,(813) 760-7600,Uwoopu Lane,Ismovli,TN,84379
477,Blake Riley,viveppep@uha.vc,(984) 872-1152,Martan Pass,Subhaduh,NM,21269
478,Tony Carr,opuce@ba.tm,(710) 436-8472,Cobtaj Lane,Azavosik,NM,65201
479,Sophie Obrien,so@ak.ph,(716) 336-8873,Jocus Road,Besinus,MA,50553
480,Bess Bush,ti@sowozi.bm,(608) 576-8489,Buhid View,Tucnekwet,MO,21753
481,Samuel Caldwell,nu@jelerzal.uk,(857) 854-9623,Lilet Avenue,Domuhnu,UT,30872
482,Landon Walters,lalumum@semfe.sr,(243) 994-4186,Gihaj Lane,Kobagimif,ID,13695
483,Dora Weber,muv@kas.by,(976) 486-8916,Nika Pike,Depmuli,TN,86498
484,Edwin Abbott,atititu@oflivpo.cx,(306) 812-1725,Vuzga Grove,Wirmiva,NM,88308
485,Clayton Richardson,cem@ifirad.ke,(624) 848-4361,Zaur Path,Nepzisu,NY,87578
486,Marguerite Gomez,de@wukowo.sy,(684) 834-8950,Hivki Mill,Epikevi,MS,81556
487,Grace Todd,riafeum@kusas.gs,(545) 228-2217,Ubki Pike,Gopeko,OR,26999
488,Landon McCarthy,ozi@utatugu.au,(420) 523-8398,Otudap Heights,Acamezfev,RI,39735
489,Stella Salazar,igenake@rabnuscin.ga,(555) 286-8572,Selde Glen,Mugapa,AR,45836
490,Leonard Adams,watipuw@aso.rw,(966) 730-5463,Wavaw Avenue,Tokzulji,IN,39612
491,Lucille Reid,zeavo@dul.bq,(951) 419-8463,Nevto Road,Lacjaro,NJ,64158
492,Lora Dennis,socup@wikguk.am,(366) 992-9834,Tute Plaza,Ompuzav,SC,58470
493,David Brooks,ubmi@oh.org,(342) 595-7152,Fapco Ridge,Halogoew,LA,14293
494,Katie Oliver,ze@iva.iq,(735) 252-1662,Zorag Avenue,Esvewmed,ID,34484
495,Jeffrey Green,bawam@urjuhsa.jp,(738) 602-8406,Ovwu Boulevard,Piwovbo,AK,76276
496,Frances Warner,cohul@mam.id,(657) 614-4736,Ahtac Heights,Dibokiso,CO,90750
497,Linnie Lyons,son@red.tr,(356) 797-7285,Info Path,Jowebe,NH,07099
498,Verna Freeman,ri@pah.kz,(433) 829-1503,Bezus Court,Remlibvif,ID,15069
499,Millie Jackson,meccut@zi.uk,(274) 869-3565,Zedke Road,Veohetu,IN,73481
500,Herbert Stewart,pipuli@ko.cc,(551) 548-4611,Sothik Key,Upuciwom,NJ,41114
501,Miguel James,avham@oj.is,(332) 995-4057,Sace Path,Selcaviru,WY,37566
502,Rodney Peterson,uf@iv.hr,(306) 203-8509,Gisosi Key,Udopubok,IL,51282
503,Lulu Walton,bedvu@ajanu.mv,(842) 754-1651,Okbu Boulevard,Kufejuuw,CO,79827
504,Howard Cox,madibla@zubri.dk,(831) 598-8567,Taser Boulevard,Haindi,IN,21201
505,Tony Greene,siwukehes@lu.tn,(963) 440-7502,Fihi Mill,Lanozfu,NH,61898
506,Celia Silva,la@siwseep.by,(535) 507-8269,Neov Terrace,Romledo,TN,16466
507,Fanny Freeman,ekgalvo@lehpupciz.br,(353) 751-4540,Oruec Point,Cahgakke,CO,13183
508,Lydia Robertson,liwi@ubbucde.aq,(944) 296-9978,Zeod Drive,Kozopha,TN,89597
509,Maud Barber,bosibtah@walfa.az,(322) 205-7534,Sula Place,Melzahad,CO,41949
510,Lucinda Rodriquez,dizpian@ji.mt,(552) 647-5992,Cedpu Lane,Hibmihgan,KY,88105
511,Melvin Swanson,kaveoru@hez.tz,(504) 586-6339,Duusu Parkway,Pubfarir,OR,51055
512,Melvin Dawson,lesaggaf@baj.aq,(970) 439-6625,Ecagap Way,Zetuplil,WI,11922
513,Ina Green,ajojekiw@bub.vg,(357) 406-8046,Ihofus Avenue,Ematoja,WY,08755
514,Mable Reeves,luv@oji.ac,(664) 990-1040,Binek Trail,Sipworan,TN,39206
515,Jack Carroll,ako@nupizro.ba,(321) 671-1805,Cozig Highway,Otejofih,OK,10462
516,Marian Freeman,co@nogemip.nz,(957) 791-1465,Kioz Court,Icobogtip,GA,19052
517,Derrick Graves,lutroeb@geg.pa,(652) 912-7658,Esewo Pass,Pionaj,WY,64625
518,Georgie Hunter,befahe@rop.org,(945) 521-2695,Wihdu Circle,Jenadorij,OR,44235
519,Nicholas Hicks,nohdasmaj@hir.er,(516) 483-5528,Tutub River,Beimeik,NJ,86667
520,Jeffrey Moran,bomwatova@rubhag.ss,(364) 550-7765,Iwuduf Park,Dagsava,ND,54287
521,Carlos Waters,rokavuna@siso.nc,(913) 220-6062,Tunfik Court,Kusomun,ND,23787
522,Henrietta Underwood,givolnab@gugomik.tk,(710) 337-6507,Kanmi Avenue,Cavtizmec,MA,18827
523,Patrick Daniels,cihote@ijragpi.ao,(639) 732-8775,Ekikal Manor,Tacihuh,TX,50141
524,Dora May,jodan@houb.lc,(944) 295-2872,Toza Key,Focimvu,SD,73573
525,Alvin Wilkins,denbatdah@tetemus.nc,(812) 887-1265,Kede Pike,Depamud,WA,53924
526,Myrtle Joseph,jit@nefre.is,(420) 586-8305,Wonu Drive,Tinidi,NE,88060
527,Gussie Kelly,tobutlu@co.tw,(755) 216-4979,Biofa River,Efehefap,KY,09063
528,Floyd Delgado,labuckuf@wenbaobe.jo,(810) 635-8826,Hisi Boulevard,Ekotneh,MN,01165
529,Antonio Fisher,at@vi.ca,(602) 335-6854,Enasiv Boulevard,Nokozi,ND,79912
530,Ada Turner,jihwuow@mukjazud.tt,(938) 483-2059,Capur Loop,Kujifmaf,KS,78758
531,Olive Flores,cu@sonmidcu.cv,(333) 220-9326,Fogak Point,Cadisaloc,AZ,45672
532,Harriet Harmon,fuule@zinelobef.sd,(223) 656-1162,Ciwlo Pike,Ligobub,KY,89746
533,Marian Cox,rewheliw@luuva.gb,(752) 622-3756,Roug Way,Isozikog,DC,29496
534,Maria Washington,ezazumsuz@abutugjis.mo,(330) 542-2410,Udavew Road,Ulotugred,IA,66192
535,Rachel Johnson,mo@su.re,(317) 251-3615,Lubze Parkway,Ebpuhebe,IN,81230
536,Georgia Chandler,gofuvafo@ocwuw.gf,(973) 494-7658,Ofaj Mill,Jirucisiw,WI,51301
537,Bill Schneider,veruvip@wamhu.mu,(802) 369-1045,Kale Pass,Jaboku,MO,83326
538,Lettie Vargas,ofelucav@ovoov.mt,(473) 579-9217,Vodel Drive,Jufencuf,DC,34055
539,Joshua Obrien,belizov@imhowa.fo,(319) 273-7364,Vakli Lane,Lalmegsi,WA,69365
540,Lois Torres,mavpo@ril.uk,(326) 855-6288,Cullul Avenue,Ogamuit,GA,81060
541,Hunter Medina,lopinbid@ragated.yt,(902) 443-7862,Sefif Turnpike,Rallidja,WV,85146
542,Eva Ramsey,can@igucaj.tr,(648) 729-7614,Ramuw Lane,Beonito,AR,00209
543,Alexander Copeland,li@oza.om,(519) 765-2362,Kigume Key,Wimodin,NM,33444
544,Mae Hayes,ec@mivaw.ru,(782) 969-1302,Bije Junction,Cavubi,ND,00405
545,Marcus Fowler,aguhpug@ziz.zw,(926) 254-8471,Hiew Path,Pevtavjus,RI,95364
546,Jack Richardson,bohpil@zud.pn,(432) 237-8337,Wesov Highway,Kikkusned,DC,99144
547,Polly Obrien,inu@tewgaji.gm,(571) 385-8817,Penib Plaza,Datfozhat,VT,86717
548,Jorge Gordon,dufohif@ofo.mp,(914) 465-7752,Muewa Pass,Ibubegone,DE,18943
549,Gerald Reynolds,vucrid@pi.sy,(669) 364-6788,Teji Road,Suzumfib,SC,10778
550,Julian Harmon,afauh@upudi.bq,(858) 520-6476,Ziclo Way,Tashuti,AL,37796
551,Scott Mann,saglej@emota.ml,(951) 910-9867,Pavo River,Vebaela,MI,00421
552,Loretta Atkins,do@nararol.mo,(332) 731-8864,Lezev Lane,Pucamo,AK,55242
553,Brian Wolfe,gu@pukuz.re,(462) 472-9732,Mukpak Trail,Beevwa,KY,14366
554,Verna Gomez,luj@ganogfo.gi,(540) 760-2548,Bohe Place,Tortenet,IL,53583
555,Etta Gibbs,pimdiz@upi.th,(965) 746-7062,Dizfob Extension,Hellagwa,ND,68829
556,Hulda Fleming,ozhunes@ibu.ru,(975) 513-2638,Tafhi Park,Kilorwu,AK,95239
557,Timothy Dennis,teejauzu@ulotiova.sk,(574) 317-7661,Kuhe Court,Picbotul,UT,63039
558,Polly Graves,feigu@aci.cw,(911) 400-3994,Zewes Road,Rijejbup,NH,78382
559,Clifford Herrera,ankooti@ido.uy,(524) 863-7400,Awiulo Trail,Fuamvij,NH,49836
560,Cornelia Neal,cueda@midafejar.mq,(216) 226-9862,Vekji Ridge,Azokarbeh,MS,44994
561,Edith Vaughn,fav@ul.sj,(943) 667-3133,Oduto Trail,Metkeeg,GA,46977
562,Frank Wilkerson,pivtepcec@nowci.sb,(945) 567-7998,Juku Glen,Toposi,SD,03078
563,Tyler Rose,kuhelci@omeica.mv,(729) 770-8936,Cihur Point,Jopjelub,SD,29886
564,Lloyd Knight,buzobik@jalaho.hn,(736) 693-5940,Ejati Mill,Juzsugok,SD,04061
565,Katharine Bryan,av@ri.lv,(368) 432-1326,Dofu Court,Tuujve,NJ,57886
566,Philip Perez,vika@aza.ck,(252) 838-1447,Okzu Avenue,Bipcofi,MI,27942
567,Esther Morris,voz@od.ms,(741) 322-7355,Urelag Manor,Otmeguf,UT,06918
568,Elijah Conner,mod@adisunif.sj,(374) 850-5753,Saztaj Ridge,Vuzauf,MI,60563
569,Jay Olson,jac@je.ps,(679) 609-6872,Nisas Road,Lutleubu,SD,37474
570,Johanna French,saut@imalebol.rs,(853) 874-3911,Piha Road,Teligine,RI,34836
571,Beatrice Willis,iwwimap@jib.so,(269) 909-2534,Romo Street,Kumwavreg,TN,44543
572,Randall Ramsey,kibpu@fin.do,(862) 217-3037,Ojihe Turnpike,Neckonke,NY,78782
573,Gussie Dennis,pokar@beuhaip.ve,(504) 235-5819,Ligan Turnpike,Hivuneg,ID,75311
574,Bertha Fox,onebe@jowlik.qa,(660) 395-5293,Puor Road,Sacdinwig,MO,22623
575,Sophia Flowers,evuje@pesjet.mz,(951) 219-2170,Zaso Circle,Jusehe,VA,46411
576,Johnny Pittman,ulbuib@ku.cd,(341) 333-9561,Kadika Heights,Jufapluj,DE,12391
577,Josephine Holmes,kil@ziw.kp,(226) 692-3594,Puzu Avenue,Maovgu,KY,36501
578,Mario Haynes,baluki@gadwapja.ac,(600) 809-9816,Izosa Way,Esezeopo,OH,85804
579,Edwin Townsend,tuuwor@helen.ki,(251) 743-5096,Tohec Avenue,Saicafub,ND,87928
580,Helena Norton,zetmikig@col.mu,(864) 671-8947,Kuma Junction,Tajhuhe,CO,33185
581,Rose Gibbs,zougolu@ira.af,(720) 291-9226,Geslin Junction,Ujiengeh,NJ,27974
582,Andrew Burke,pa@gim.bz,(359) 510-1739,Lobe Highway,Ziripri,NH,87020
583,Ida Cortez,ecdud@jowessog.fm,(234) 448-9988,Cukas Turnpike,Nifoanu,CO,09839
584,Isabel Patrick,uwu@jazfap.iq,(575) 662-4268,Devwug Terrace,Gugedar,TX,32002
585,Effie Byrd,zoba@okanal.sd,(255) 503-6715,Fevve Place,Galomi,NE,56102
586,Matthew Brady,mocnustu@akcuila.ru,(765) 204-7638,Maso View,Mumibila,OK,94592
587,Tyler Simmons,ga@azojurud.bj,(563) 881-5325,Vecpum Key,Mefufge,MI,27310
588,Frances Vargas,iw@le.pl,(642) 217-8019,Hidte Ridge,Lijirar,AZ,95960
589,Erik Cobb,uvhi@ujegazuf.ke,(570) 687-9967,Metul Road,Bacwancu,ID,56310
590,Dean Nichols,bomsep@cez.io,(273) 955-4145,Jedu Square,Epovene,NY,85498
591,Stephen Vaughn,cuzejco@appibob.ca,(584) 225-5686,Picpom Pike,Kilvohat,WA,07709
592,Nathan Allen,we@wo.py,(346) 318-3330,Icosi Key,Egmadhe,IA,93996
593,Mabel Ruiz,lekec@son.af,(347) 224-6164,Kiri Court,Rujultiz,VA,41239
594,Wayne Williams,hulbasre@uccesuhu.kz,(805) 431-8231,Pipli Terrace,Kagopgog,ME,88723
595,Anne Munoz,hegnok@cohosama.gl,(754) 803-3027,Boda View,Uhebotkut,OH,04531
596,Alejandro Chambers,dag@ja.dm,(443) 391-1702,Welut Circle,Himowrub,AL,96484
597,Madge Jackson,ogisurba@fervo.ki,(432) 494-2162,Puodi Pike,Fedcanno,TN,20785
598,Francisco Briggs,owpejud@ko.com,(637) 371-7257,Rupmib Place,Musrowti,VA,78679
599,Sam Mann,vogezhu@icgukac.mr,(812) 977-7608,Oviet Drive,Lekhoapi,MI,96977
600,Glenn Berry,zovdap@hakfakgu.edu,(264) 220-8551,Tanke Heights,Cemtidmu,WV,96560
601,Jose Sherman,vo@zuffinwid.om,(343) 208-4351,Onolej Center,Zuvulsos,IL,43205
602,Jonathan Hampton,vagtajlom@ah.cd,(251) 748-5333,Osgez Loop,Gevabme,NM,72476
603,Jon Howard,ehnojruz@gonot.me,(445) 736-9963,Puasi Key,Epciru,MN,64164
604,Martin Ryan,bepanul@vusacuk.mm,(745) 852-3838,Nozu Terrace,Imuffof,CA,95694
605,Daniel Harris,nav@jofto.hn,(642) 756-9970,Ecefe Park,Zirdoudi,KS,88169
606,Lena Fuller,fu@tiz.ie,(717) 877-4270,Kozeha Court,Nukbivsem,MA,24176
607,Angel Santos,ru@jim.cv,(836) 937-2209,Lijob Mill,Pujdesa,NV,28371
608,Phillip Parks,hakicjo@jabipeb.ir,(545) 682-7789,Ipigo Circle,Zewigo,FL,08513
609,Ada Gill,hu@loli.ao,(674) 633-7390,Fofzih Highway,Jaudinev,AK,15818
610,Luke Moore,ihcovic@hudjeeji.bz,(350) 603-9729,Reppi View,Orbuca,IA,49992
611,Scott Pearson,newafaci@si.ky,(322) 212-5315,Ivda Path,Sihcair,NJ,16464
612,George Lewis,eg@licig.dk,(765) 466-4777,Efeki Extension,Liitlub,MO,23594
613,Ray Swanson,sav@eki.bz,(248) 654-6570,Wanu Road,Jekezifi,HI,23692
614,Randy Wood,zeti@dac.es,(632) 951-1487,Imjib Avenue,Igetozlow,WY,02078
615,Bessie Carter,gu@heihbop.com,(950) 959-1072,Urtuf Highway,Businic,DE,63721
616,Mitchell King,zukara@ib.gt,(973) 247-8978,Sezko Junction,Nibjuji,AR,18286
617,Nathaniel Gross,pa@gitbasif.eh,(537) 918-9547,Rowu Glen,Tophutin,NJ,19309
618,Ray Conner,vimduk@jen.na,(233) 992-1813,Waku Pass,Warwuluw,NV,71772
619,Charles McDaniel,uso@lepcic.bh,(833) 830-6536,Lampig Ridge,Abolabom,ME,83809
620,Lizzie Pearson,ja@idvued.ca,(949) 561-2574,Degu Street,Cavufcep,WI,66011
621,Larry Webster,azaugurep@zucvuw.mc,(965) 941-7590,Tatid Center,Muwowes,MN,51511
622,Johanna Townsend,juflogo@wumpug.td,(339) 306-7114,Fancif Parkway,Zusavcek,OK,20296
623,Nicholas Ramsey,fo@zelfe.bt,(957) 854-3290,Keke Loop,Lotlola,NE,67516
624,Lottie Rodriguez,bap@sam.si,(723) 822-4485,Ofuhul Road,Avoicca,MS,86044
625,Olivia Townsend,nohla@fi.kg,(302) 256-4647,Musa Drive,Igopafku,DE,10161
626,Myrtie Bryan,biz@cuoje.kz,(549) 894-9683,Kioh Plaza,Fumusasaf,AL,13221
627,Gerald Ferguson,pomaic@giibo.se,(656) 626-4743,Kotlat Way,Adcodu,MA,70588
628,Eugene Hall,fuvfusa@cufmahow.sk,(877) 547-6393,Ciopo Way,Zivtikvo,TX,62245
629,Lucas Cohen,tamarder@idow.co,(900) 860-6629,Uwofu Mill,Sihgeoji,MO,84970
630,Glenn Schmidt,fuepa@vufowjer.vu,(348) 469-1876,Kinri Drive,Waigbub,IN,47133
631,Mario Herrera,ohuhhe@etoulera.gd,(668) 573-4868,Lewkat Avenue,Nuzovoci,IN,19715
632,Christina Rhodes,hipana@bedfuled.er,(836) 837-4030,Nouc Path,Sunamoec,NE,71483
633,Roxie Jacobs,culzo@imitotdi.pf,(485) 219-6008,Uler Boulevard,Modtowem,FL,34174
634,Sue Walton,led@foz.am,(656) 468-9827,Jeke Grove,Huicieze,CA,49703
635,Jon Copeland,pol@kudihkif.dk,(940) 829-2875,Besu Junction,Lipedih,SC,19400
636,Douglas Green,degogwij@oho.cu,(366) 989-6269,Nuggem Square,Wosgihdo,OK,19846
637,Rena Schwartz,nomjuzmip@fa.ms,(818) 867-8525,Hite Terrace,Panehmo,ME,17482
638,Jimmy Chandler,nimguv@jahpe.hm,(900) 605-7708,Imimi Pike,Ukhogbo,DC,72523
639,Jackson Caldwell,pun@ahubotut.cu,(431) 946-8272,Awege Junction,Jeacdef,AL,74734
640,Robert Nelson,za@daakbed.bv,(610) 833-7017,Cake Mill,Godubfel,RI,61686
641,Edna Summers,afowa@acmopej.io,(657) 322-2478,Cejkud Park,Gejovtu,NM,52128
642,Inez Coleman,fop@caliw.sr,(353) 497-3334,Peshec Key,Rajeffid,WI,77909
643,Wesley Floyd,pevefa@uriujirut.gt,(259) 957-1889,Gugel Street,Gepvizto,RI,48488
644,Jimmy Lee,tieku@udgi.jp,(576) 383-1439,Ejuca Path,Asaratob,WA,01626
645,Addie Flowers,fobu@liga.vc,(842) 959-4599,Fejol Heights,Hoduzuj,CO,98517
646,Kevin Barber,ceb@gurvu.do,(448) 527-6056,Bupul Mill,Ciniked,KS,06798
647,Walter Joseph,ci@fuv.mt,(668) 645-6296,Veza Key,Cobuvnuh,NE,86997
648,Stephen Padilla,ad@jinpuheb.ng,(535) 887-5130,Epikif Grove,Lonfiwof,AR,24020
649,Caroline Aguilar,ivaili@vegew.vg,(941) 784-3344,Jisov Mill,Tandelupi,OH,93976
650,Jeff Johnson,doz@heidolo.mu,(566) 591-1717,Luse Grove,Ducuzoh,SD,94393
651,Jonathan Pratt,luz@gis.se,(384) 272-4207,Gugneh Grove,Zovawe,LA,47872
652,Trevor Burke,ruli@mob.de,(686) 648-4518,Usufo Park,Zigemna,AZ,80968
653,Katherine Roberts,novuig@jejfuzin.hu,(246) 513-2107,Okrob Drive,Iktaiz,ND,64603
654,Mabelle Conner,uvaguj@uzojog.bg,(519) 734-1677,Vaju Trail,Wetuvo,MN,52603
655,Joel Ortiz,veer@sejpo.gp,(716) 952-5642,Suwic Junction,Apbovra,MA,26695
656,Mario Harrington,dinisi@kegje.bm,(822) 356-4442,Leahu Place,Lozete,UT,25218
657,Barry Brady,viki@bim.gov,(449) 285-9219,Bodil Heights,Fiewce,DE,55904
658,Raymond Weaver,wut@ko.sj,(507) 848-4808,Zudiw Pike,Jiwipbi,MA,83124
659,Olga Clark,defjeb@medo.kh,(837) 459-7158,Lazup Trail,Aniehdor,ND,01199
660,Jeremiah Manning,wum@cov.tg,(616) 792-1435,Ibikeh Park,Bogevpe,CO,38799
661,Samuel Hubbard,bok@da.mc,(929) 618-1535,Zuhhi Drive,Ajuvta,WV,21082
662,Walter Foster,wubipagev@dabvukij.an,(447) 321-6533,Ujfi Ridge,Urdufucu,ME,85345
663,Alfred Yates,nirni@al.pt,(804) 507-6058,Hurup Square,Jiejoc,MT,05048
664,Matilda Moore,geiti@tekavuc.com,(207) 632-2046,Warkon Pike,Pinfime,UT,98481
665,Stephen Andrews,ineco@tigozez.sd,(887) 444-3877,Cadfa Extension,Taewfu,MA,13716
666,Mable Wood,muf@fesvozwij.hn,(344) 461-5911,Didvo Plaza,Rijirij,MN,57942
667,Lillie Carson,hukod@ruc.mg,(544) 649-4560,Avlo Point,Ontajjop,MN,23044
668,Raymond Abbott,gim@va.cz,(432) 692-5806,Niir Glen,Elopibo,NV,66810
669,Martin Olson,di@ritvu.kr,(689) 521-4942,Tahuh Parkway,Siniktez,WA,14964
670,Emilie Peters,ma@dos.sz,(245) 649-3813,Turu Pike,Vunevuh,SC,79638
671,Sarah Harris,wi@zehelud.ck,(206) 945-2276,Bidwo River,Cophedkag,OK,63055
672,Esther Thornton,ju@reeraju.sh,(640) 710-5393,Zopra Mill,Hewumriz,ME,81172
673,Cordelia Chavez,jaut@asocagu.sh,(356) 494-6105,Ahna Boulevard,Fipudi,IA,69578
674,Jorge Watts,mopama@digu.ph,(714) 939-6013,Goke Road,Mevusasap,NC,99584
675,Jeffery Howard,tuc@sivu.us,(553) 889-6636,Vinka Plaza,Juduoda,CT,09434
676,Mario Pope,acasewo@afe.kw,(576) 390-3563,Giju Lane,Kawutazi,IL,19132
677,Kevin Sanchez,ib@micfete.ag,(524) 634-8892,Roje Circle,Isipihnu,ID,12513
678,Jesus Alexander,dawaz@ze.br,(301) 927-3561,Javtar Loop,Jafohahi,MT,03674
679,Georgia Caldwell,eh@du.ae,(764) 549-2315,Aklub Ridge,Efjedwus,MA,05921
680,Myrtle Lawson,hati@fu.bm,(679) 266-2686,Igedos Plaza,Zavgojen,ME,13598
681,Annie Maldonado,jiw@awnobpo.gp,(607) 399-5547,Buzag Center,Citkobonu,WV,80902
682,Logan Day,zihow@muz.ke,(860) 240-8955,Rukjej View,Taofuwa,OR,95447
683,Alex Carpenter,vitewa@utiwa.bs,(878) 330-6941,Dehtif Place,Zuvimgu,WA,08443
684,Sophia Vasquez,usu@pefbofon.fi,(682) 332-2948,Ucziw Avenue,Bohwuggu,UT,51368
685,Katherine Lewis,ruewojim@revpi.lc,(623) 219-9808,Geta Highway,Woormab,WI,08181
686,Nettie Andrews,givup@tu.ne,(260) 325-6285,Gorce Place,Wibfazuw,OR,92030
687,Justin Richards,esatuj@mim.vu,(667) 213-8923,Tukid Way,Vusonben,UT,82329
688,Ronnie Payne,ujobes@ijo.ie,(600) 519-1659,Jeuc Pike,Igvovig,DE,47335
689,Austin Day,efeziek@dearedul.sx,(644) 394-1477,Cafi Path,Kulberet,WY,51169
690,Elijah Daniel,wub@dem.gp,(808) 520-2760,Remrew Road,Voracela,PA,68824
691,Oscar Lawrence,geh@zu.zw,(723) 965-5444,Purwe Grove,Jovsowi,CA,69268
692,Matthew Mason,ihteje@ezwigcir.ni,(367) 699-2016,Ojew Street,Zahkiso,SD,20626
693,Herman Valdez,kizit@ek.bw,(711) 498-4759,Jotze Avenue,Elnucip,AR,35479
694,Darrell Jenkins,pubfimcov@ha.vi,(246) 566-7724,Opru River,Cewidu,SD,84752
695,Nell Adams,ce@miviv.ca,(823) 557-1525,Supibe Center,Dotuwo,ND,50059
696,Edith Payne,igerok@cefa.dz,(339) 854-2584,Abno Boulevard,Fuzdizmon,AL,83281
697,Anthony Berry,ufkum@sevaero.af,(983) 639-6925,Riwa Way,Liknodtu,VA,57464
698,Roger Moran,azuobepo@sonhej.mq,(847) 968-2350,Gaze Center,Viwiweg,KY,08988
699,Lee Atkins,cuhtehri@jihitti.gs,(584) 565-1055,Kadgej Terrace,Muzkikun,IN,57702
700,Lulu Lopez,fa@parnun.gr,(972) 842-1339,Sipwin Pike,Mitnomiz,FL,38502
701,Bettie Sanders,dav@hicodep.ly,(872) 620-8111,Cartu Highway,Duvnunu,LA,98806
702,Clifford Meyer,ri@acwihu.bv,(845) 330-7251,Subwo Parkway,Omukajhug,MN,37147
703,Cody Davis,wupgis@ufpudcon.pa,(961) 294-2275,Megli Way,Ruasaeb,FL,04674
704,Sarah Watkins,cigoh@dihgejfi.ph,(276) 886-9169,Toftu Trail,Osdofod,NV,46667
705,Wesley Walsh,enizefaw@meve.mm,(516) 333-6309,Rouwa Loop,Patzakil,WA,45083
706,Inez Morrison,hale@lotti.in,(211) 853-2525,Ufboj Pike,Pehurpi,NY,33841
707,Edna Stevens,jilpemar@gutjav.au,(477) 842-3001,Veef Trail,Osaatmuj,AK,65370
708,Mildred Thomas,bolik@ij.co.uk,(255) 555-5974,Wali Parkway,Wavvupho,WI,00216
709,Leila Gill,nam@uv.nl,(575) 762-2358,Sisul River,Irigebki,DC,44748
710,Iva Keller,omasuzpoc@hatuvne.am,(571) 462-9703,Dunid Turnpike,Zukjudbog,MI,42355
711,Dean Gross,kivpasbu@do.tm,(486) 985-2642,Buvha Place,Havakki,TN,52478
712,Nettie Delgado,uhbis@letoc.pa,(754) 514-2418,Posbu Boulevard,Wagjosiw,ND,82412
713,Chris Ramsey,lawpuv@hiruw.uk,(849) 301-1666,Vufuj Key,Takbivne,NM,47870
714,Derrick Glover,pehuflag@rujhu.li,(404) 631-5056,Gaaz Point,Rotodni,MN,14730
715,Leo Dean,def@notomcu.la,(269) 285-8325,Nile Road,Bejuza,ME,63129
716,Bill Adkins,gapa@pij.dk,(638) 783-3658,Alioc Circle,Ubvucfu,DE,05678
717,Brian Clark,uwwij@kouj.eu,(541) 508-3338,Ragnoz Path,Jorfugmor,MA,84777
718,Lida Nguyen,udiha@ulruzsu.gf,(465) 415-3023,Mata Pike,Jizigfa,HI,25685
719,Isabel Lamb,meberuw@wokaso.cr,(776) 473-9713,Kinlu Center,Jocgolum,NE,01834
720,Jean Cohen,koznihog@co.as,(832) 520-2842,Pozage Lane,Ziphoguw,NC,13978
721,Marvin Huff,iva@he.zm,(871) 486-3920,Epro Manor,Wohvuroko,OK,17906
722,Lucile Newman,pum@utpil.tj,(321) 692-1274,Jiju Pass,Rosoho,NC,41405
723,Effie Salazar,veh@piwmup.uy,(825) 293-5557,Norti Way,Reetecid,IA,14074
724,Gussie Scott,jurof@zus.pk,(466) 445-6107,Cojud View,Gojapto,KY,04042
725,Curtis Clarke,jigup@cupudetol.lk,(802) 963-7147,Odkab Trail,Ipoukop,MI,12965
726,Ruth Morrison,magab@galbago.com,(877) 607-5455,Fufa Avenue,Feajudor,NM,80921
727,Ryan Curry,beralu@betorgic.mh,(934) 798-2985,Ilueku Loop,Inefune,RI,86500
728,Leonard McKinney,lukewu@babmupuz.ae,(240) 866-1028,Kezoj Mill,Jadigba,FL,74729
729,Russell Schmidt,ilo@vanemgu.ge,(684) 377-7234,Zulel Plaza,Riheba,WA,40800
730,Daniel Duncan,cut@zopvuaca.de,(847) 204-6585,Vokzo Pass,Nodubizib,LA,09230
731,Cody Vargas,zapi@epususub.fr,(256) 564-7275,Osinac Place,Gefdikap,SC,70505
732,Roxie Ingram,neritnef@fi.vn,(282) 923-1751,Fuvne Plaza,Vulkonic,CA,21223
733,Kevin Garrett,he@pihew.ug,(312) 495-5567,Tuvudu Path,Lejfabsu,AL,58456
734,Lillie Schneider,nanoh@uzo.gf,(641) 684-1746,Kopgog Point,Wijidotuv,NV,30475
735,Alberta Carr,walahlak@roti.ee,(286) 807-2562,Cozet Center,Pomefkeb,NE,81228
736,Amanda Little,ves@aced.tp,(333) 539-9845,Rutid Ridge,Vofnavav,NC,57813
737,Olivia Moody,vutvot@jar.mk,(283) 476-2290,Ozzic Street,Fetiroku,WI,86868
738,Paul Little,fiz@arocisze.fr,(315) 652-9945,Kemmaz Point,Husewra,HI,92250
739,Birdie Holland,sokar@hafap.me,(376) 517-1939,Pekjo River,Riculse,NY,55971
740,Kyle Holmes,hah@ohosifis.az,(652) 367-4015,Todu Road,Kumwemu,VT,25507
741,Leona Steele,nobatsun@coolbo.gq,(908) 727-4351,Amibi Pass,Ipofuev,VT,24346
742,Mina Flowers,ohso@ednuew.me,(952) 395-2784,Evso Manor,Nolfuka,NY,28240
743,Anthony Townsend,cejdup@did.kr,(444) 729-8110,Hitwiv Turnpike,Tujihpeh,LA,68762
744,Chase Reyes,fof@uhuogu.kp,(946) 266-4579,Daji River,Efejabje,DC,78446
745,Ada Martinez,buco@guwa.pf,(583) 423-5518,Vikuv Lane,Jatogvec,NC,99939
746,Katie Fisher,it@siano.md,(787) 689-9475,Gano Road,Vudpapho,GA,82994
747,Myrtie Brewer,vogil@pedeve.bw,(231) 536-5459,Wuzci Street,Ahdosi,KY,11020
748,Hester Newton,osuko@ruceka.au,(343) 269-5720,Poci Plaza,Zimjewsi,CA,60694
749,Maude Butler,cifwef@ihjaj.ma,(644) 842-5583,Noddap Boulevard,Serozesa,SC,30287
750,Mark Roberts,gip@pa.mm,(965) 925-1342,Keror Circle,Ralcasbe,MN,57536
751,Mable Newton,buktopug@jowe.ne,(414) 212-1844,Bitpil Pass,Muhufro,KS,04987
752,Pauline Parker,vad@az.sd,(574) 704-9328,Fiwfuk Manor,Ufnigu,WY,12381
753,Kate Morgan,po@ki.at,(359) 293-3970,Lijko Street,Nehidtu,NM,00897
754,Madge Hunter,ega@do.bb,(289) 793-8023,Sodic View,Mocpekgum,KY,05402
755,James Leonard,cikupe@ita.gw,(910) 885-7511,Havba Lane,Tasromki,ND,15178
756,Violet Hill,nim@aho.lt,(924) 381-3256,Ekli Turnpike,Fistatama,WI,76846
757,Katharine Brooks,cotel@pogutak.eh,(641) 382-3494,Zipjis Pike,Vinsehba,IN,36669
758,Georgia Jenkins,coapisep@le.mh,(618) 873-6103,Zuzevu Path,Uchatiz,SC,82853
759,Adam Burns,zasjev@juze.km,(278) 688-2018,Tari Pass,Apwacsam,CT,82271
760,Nora Bryant,osehepe@asaeborow.ch,(246) 897-7889,Fuwoni Parkway,Losnuccik,DC,46005
761,Harvey Lambert,ciewvib@imu.ax,(747) 258-6032,Arbe River,Elelonug,NJ,77421
762,Nelle Greene,pitigoj@ubikonpip.il,(760) 251-3353,Irvah Junction,Sikazpeg,ME,47589
763,Charlie Carroll,te@miv.sg,(645) 640-6744,Ismu Parkway,Bubefi,IA,42409
764,Daniel Roberson,osoki@nak.ki,(856) 731-4654,Tuwli Terrace,Zekemi,NJ,19614
765,Chester McCormick,uje@turuwves.id,(687) 981-8814,Buru Mill,Habahid,SD,28744
766,Ophelia Jordan,ojwegsij@ku.mv,(682) 912-4922,Ufeha Center,Wimkosud,CO,88692
767,Ian Perez,tahivi@do.wf,(208) 511-8403,Izfaz Lane,Ipcorzul,CT,44627
768,Alan Perry,lonovo@zab.io,(437) 813-8306,Evjof Glen,Zewidraw,ME,17190
769,Joseph Coleman,dusab@wa.cy,(243) 646-8949,Howi Way,Juesefep,OR,79233
770,Jay Simpson,sulzuhaf@cakhe.fk,(549) 865-1004,Vudom Plaza,Otlogof,OR,09993
771,Blake Lindsey,fag@comico.sa,(373) 794-8678,Ricuc Ridge,Erigucar,NM,63885
772,Albert Curry,fuejipi@kohsut.om,(889) 328-7512,Haus Court,Wasazose,OK,26184
773,Betty Bishop,cec@jebu.so,(859) 453-8578,Pibmo Path,Lokoteb,KS,20432
774,Myrtie Blake,pepo@bathudli.bg,(960) 553-1579,Obodav Pike,Pifoom,WA,94796
775,Lula Hall,loifiem@ubbik.bf,(501) 477-4526,Fimro Grove,Mezibdu,HI,16048
776,Marguerite Thompson,goc@tucha.gf,(822) 780-8702,Ommic Key,Nopovi,WY,10127
777,Herman Cain,lapis@urwuccig.np,(320) 526-7378,Sidci Road,Vubema,GA,40959
778,Cecilia Bishop,ul@rofwopjo.tt,(557) 860-4626,Vicit River,Ucloka,MO,78864
779,Adam Chambers,pudgo@cipebo.ad,(884) 580-9042,Ifori Pass,Vatwagew,AR,82482
780,Randall Reese,uvisore@livoseb.va,(917) 917-2717,Lamos Road,Getduhuc,OH,29115
781,David Rodgers,mo@voin.ck,(305) 518-7269,Piwlu Trail,Fitrifot,AZ,89249
782,Johanna Howard,mew@jaki.tl,(378) 555-5853,Botaf Lane,Govigu,TX,37431
783,Alan Carpenter,lub@mozozmup.tp,(206) 603-2419,Havzig Drive,Verissu,OH,16807
784,Tyler McGee,jedow@bujda.sd,(474) 728-2636,Urtip Pass,Ofobajfa,WY,95376
785,Christian Burke,odafofpak@pabti.ly,(267) 821-6778,Gavu Square,Zanopok,MN,71126
786,Barbara Moody,kiseere@samalbo.gd,(937) 970-2553,Ocehuh Highway,Honlosa,SD,93286
787,Mathilda Wood,ga@fuduba.sx,(315) 870-7472,Sudic Place,Gajnerece,GA,47050
788,Eddie Lamb,jojkizkov@gu.ao,(541) 690-3778,Aliti Avenue,Fuviuju,IA,27021
789,Katharine Gomez,cuntaje@cet.in,(972) 864-4253,Bojo Way,Usucous,HI,59730
790,Blake Smith,ja@zosilu.id,(275) 684-2149,Igre Pass,Kukidoin,CT,49489
791,Emma Curtis,bimafa@gapi.sr,(548) 446-3481,Zumson Avenue,Haimova,WI,19723
792,Stanley Sanchez,boh@sa.ky,(619) 599-9333,Nolan Circle,Bevrake,SC,79642
793,Pauline Yates,hodag@eckociv.ph,(244) 422-9000,Jejtu Street,Viwreson,NC,51253
794,Caleb Gardner,ifada@cawwa.pk,(804) 856-2733,Hoge Point,Zorkimle,CA,12696
795,Sarah Jennings,wepod@kuror.vn,(647) 424-3120,Rutbej Road,Naagijor,LA,30803
796,Lena Pena,unlomron@pajriko.ag,(413) 301-3292,Owomu Center,Agucetuj,UT,37826
797,Wayne Boyd,ha@jiod.nr,(619) 419-2139,Epuwas Avenue,Sajsaeg,MD,63705
798,Logan Hayes,zelatufu@tetoteuf.om,(952) 303-3239,Lapgen Grove,Nifiwat,VT,28805
799,Lester Sharp,dowamus@poriv.cw,(560) 267-6770,Wase Avenue,Neripam,MD,89614
800,Evelyn Chavez,jiofili@rimsoegi.ax,(278) 479-5985,Pibo Turnpike,Pepmuwno,DE,38017
801,Eric Perry,pud@pusmic.as,(767) 660-5077,Godje Glen,Nalfoopo,NM,20403
802,Clara Greer,rihluja@fuhbezba.hr,(413) 396-5568,Dobpu Park,Hebiug,IA,66260
803,Mollie Burns,bocpaam@tevdaj.hk,(983) 951-9161,Issi Highway,Pusurji,MO,10493
804,William Simmons,totol@bipagu.cm,(919) 518-9818,Lavta Key,Hesiherah,NC,49188
805,Eugenia Paul,aj@nuapu.tj,(308) 865-4138,Ozohic Trail,Posohme,TX,31851
806,Ray McBride,feh@ubecukuc.ae,(631) 530-4603,Ekopi Point,Afuerfu,NM,75988
807,Albert Tran,nub@vijufufud.fk,(686) 416-3577,Leja Heights,Lulowolip,WY,83415
808,Ada Santos,mecrato@wehukoj.kz,(641) 420-9277,Herbo Plaza,Ulosusnum,CO,42863
809,Ryan Carpenter,zooc@betaf.gm,(442) 915-7918,Zauve Manor,Kinbare,SC,26078
810,Katie Stanley,fugub@da.mk,(873) 776-7908,Pocnek Extension,Ateabowet,WI,25911
811,Tony Buchanan,lek@ug.nl,(975) 359-1617,Cukju Manor,Zogjadak,WA,74576
812,Nora Nunez,liv@kef.ag,(547) 517-1003,Bopja Road,Godjadog,WY,43382
813,Jeff Cunningham,govu@oveem.mo,(422) 817-9529,Ritbi Center,Hofevoh,GA,43144
814,Darrell Clayton,lako@odguowe.au,(380) 468-1477,Gapme Key,Buzdijej,LA,94433
815,Eric Hardy,uw@gog.nc,(679) 635-5520,Zeziju Road,Ziozirug,VT,17486
816,Francisco Mills,luhmod@mer.gr,(644) 288-2748,Jutevo Avenue,Ipjacac,SD,07130
817,Bernice Moreno,muot@es.gm,(605) 979-7592,Lozjiz Square,Urasewod,SD,32454
818,Bessie Hill,da@rocripak.sk,(885) 634-5118,Kurpun Plaza,Efjiwowu,OH,93622
819,Nathaniel Ballard,giwhorci@zi.na,(414) 438-5920,Fikpo Plaza,Vekapnu,OK,45821
820,Henry Greene,uk@sumo.mk,(820) 971-9816,Vudom Court,Ricvemsaz,MO,47477
821,Ophelia Pierce,varsih@bawtoeda.bw,(640) 414-6163,Ziteb River,Gukutinev,SC,17722
822,Mason Perez,fitaki@kekmoc.eh,(656) 538-5952,Fivaji Way,Etwidi,TX,09613
823,Violet Walker,linutavun@sijowu.th,(881) 998-1036,Oboded Key,Dakzorwe,WA,23194
824,Danny Kim,onafagnuw@tac.ht,(586) 497-4214,Cigdo Point,Icjimi,WY,11546
825,Alexander Glover,renufi@hucinwer.re,(562) 304-7513,Devfe Plaza,Hangoti,HI,21656
826,Gregory Wilkins,ujju@fimviwew.lb,(202) 518-9000,Juoza Grove,Zewkigi,WV,48537
827,Hettie Porter,fishep@ebimu.uz,(365) 474-9116,Bajga Circle,Umjila,MT,88757
828,Jayden Lee,uva@senpih.aw,(440) 763-7642,Laze Glen,Netuwerij,CT,10131
829,Anthony Phelps,haetnuv@sipir.gf,(924) 713-3315,Rocef Pass,Mirujih,MN,26358
830,Rodney Walters,iruujpe@san.cn,(208) 277-6007,Wofvaf Street,Vohihuw,TN,25281
831,Alta Garrett,mawocut@picidno.gu,(238) 882-5583,Insa Grove,Webvogfo,HI,33691
832,Margaret Strickland,athad@jupasce.au,(656) 625-4396,Tuhuh Pass,Nojemag,OR,74768
833,Ricardo Marshall,dol@mahbo.bw,(221) 741-3122,Nunla Place,Zezjibpow,WI,97168
834,Myrtie James,kuv@pucafkaf.si,(221) 213-6519,Jascav Glen,Evizuwih,VT,24193
835,Christian Walton,bon@lijrisep.tl,(521) 844-9413,Wouv Ridge,Feslalhip,WV,23336
836,Thomas Osborne,puwzuglir@pipmipin.no,(384) 770-6821,Gikpuw Center,Haecemel,AL,80359
837,Adele Graham,binerdij@borkoju.cr,(714) 255-4055,Uboluv Road,Zajdacwa,UT,25948
838,Mathilda Rhodes,nurpogmiv@rib.bq,(420) 942-9239,Nivwa River,Jadeiw,IN,02223
839,Rosetta Cole,ce@derahiiz.org,(723) 711-3509,Bottab Place,Saheja,FL,35119
840,Ethel Roy,fisbuvud@usvectuh.td,(531) 366-9512,Ufiduc Boulevard,Ewowubmem,MS,77594
841,Jacob Klein,lutgagda@cufsah.mm,(254) 767-4684,Fitga Drive,Vewlemeb,KS,73988
842,Derrick McBride,tupfuzce@ta.gd,(800) 592-9329,Naima Road,Kisihtul,HI,19340
843,Nell Copeland,gipo@ru.gq,(375) 229-7247,Peve Parkway,Kowilu,AK,04577
844,Marie Mendoza,foga@zehitgim.km,(571) 334-7628,Vuwmaw Point,Zocido,GA,88418
845,Nicholas Garza,wego@kajur.zw,(430) 397-3552,Raguf Extension,Anurikho,OH,17293
846,Phillip Banks,coudu@rudaw.ec,(365) 269-3702,Ruvak Park,Reuwno,MN,76107
847,Clyde Pratt,it@wafuthi.jp,(874) 943-2202,Huze Turnpike,Meczake,WY,43636
848,Cole Nash,jedas@adzeslo.ro,(839) 527-9959,Soblo Pass,Dozikwu,GA,69135
849,Sue Floyd,laspig@wuw.sa,(918) 617-9884,Peip Glen,Wegluno,TN,37125
850,Nell Nichols,ikla@miigoupi.sc,(732) 621-6464,Gaga Grove,Lopkorug,AK,66075
851,Jean Warner,ebijalijo@nefgev.gf,(642) 964-6075,Woles Extension,Wegicuf,NJ,34262
852,Lula Sutton,ko@doc.nf,(403) 740-1679,Datbo View,Mahutge,RI,01097
853,Etta Zimmerman,bultucah@zesesacu.gw,(506) 928-4773,Mocak Lane,Towuvmo,CT,84463
854,Mable Briggs,ajaavo@okamiw.cn,(459) 894-1418,Nahape Square,Amavirepu,GA,88486
855,Victoria Copeland,ejafammik@felemi.hk,(523) 208-8004,Suig Road,Cosepop,IN,48825
856,Gerald Burke,sonlot@ihgo.net,(917) 673-3884,Lowwil Park,Fuirmu,TX,95830
857,Bryan Fleming,ji@sutajfa.cv,(220) 496-7221,Palu Road,Howumlaw,TX,06413
858,Stephen Greene,howe@da.gb,(380) 300-8267,Nowu Trail,Geweija,ME,71281
859,Bruce Drake,jukpa@ecgef.lk,(769) 820-1027,Besi Drive,Keufaajo,KY,10370
860,Ernest Sims,maw@lagavfa.pl,(417) 827-3978,Imimo Pike,Kozugwi,NE,54163
861,Evan Guzman,la@ber.bv,(633) 345-6278,Ujwuj Lane,Levomesaz,CO,91084
862,Ricky Banks,ucpal@hu.bn,(603) 666-2718,Cunuj Path,Cosnori,PA,57600
863,Ralph King,agi@cuimice.bv,(386) 771-1550,Fuwet Place,Sukihtuv,TX,95214
864,Callie Bowman,fe@cirvak.hm,(804) 224-8724,Hesako Court,Dijingih,WA,62211
865,Lucinda Allison,fobilal@kaohanan.ng,(386) 748-5152,Luiva Drive,Sokimni,AK,92876
866,Gussie McLaughlin,panersig@osodurwo.dk,(548) 721-9859,Koube Road,Pamenkac,HI,17734
867,Shane Sanders,bilzon@icsec.bv,(846) 406-2884,Kugu Extension,Okifune,TX,34737
868,Ola Carpenter,voviev@zibvi.jm,(271) 568-3600,Ratbu Plaza,Goebopi,KS,49567
869,Jose Duncan,mopaasu@hul.pg,(403) 435-9670,Hejcad Drive,Enaemalov,NV,65094
870,Olga Cohen,vojamha@eha.kh,(505) 269-4635,Vouc River,Seguwleh,CA,44073
871,Fanny Wade,wedeh@wo.tv,(207) 793-7027,Itakub Turnpike,Patamzob,MS,38853
872,Troy Gomez,sos@pikco.ni,(967) 298-5029,Mepha Pass,Wivesa,VA,44088
873,Lucile Erickson,bugpiaw@tewpu.at,(262) 984-1749,Mafci Extension,Onaimlu,IL,39078
874,Mamie Clarke,ni@ahi.bi,(281) 611-3182,Onafa Street,Pubvemcu,LA,82883
875,Elizabeth Klein,ekasat@tegjose.zw,(914) 680-3448,Nuzpir Way,Kigukte,WY,68543
876,Catherine Curry,nincadeko@posnupfon.su,(670) 464-8596,Fihos Highway,Kikenna,ID,04949
877,Mae Parks,cacpac@cara.mk,(289) 207-2046,Dube Parkway,Abeuwrag,AZ,58670
878,Ethan Lane,dujmus@wepa.hu,(472) 652-2184,Eguera Lane,Urutinco,UT,08111
879,Iva Gomez,er@jibe.kn,(474) 356-9709,Hodi Parkway,Pawkajdu,CT,41813
880,Barbara Taylor,pilakiiwo@hepceuv.br,(442) 923-3238,Rahkun Place,Fihial,PA,89709
881,Grace Gonzalez,ziarinag@luvadfup.kp,(741) 417-8359,Eheiwu Highway,Muregde,MA,18701
882,Josephine Pratt,mibgakvep@fuvu.dk,(488) 995-6263,Unru Drive,Wumfonej,OR,79548
883,Glenn Turner,jaabo@bo.my,(386) 973-8006,Vena Pass,Kihovav,HI,61548
884,Jesse Hernandez,pacvigwa@fi.bs,(859) 609-8521,Acudu Path,Upapujjur,GA,83815
885,Francis Bradley,jobabadig@vadiphas.ua,(522) 402-3256,Etfu Circle,Lumzocso,CT,21766
886,Clifford May,zadmunaz@be.re,(246) 996-2475,Andip Grove,Atabilwon,MA,11450
887,Mike Oliver,wenu@do.bo,(567) 556-3651,Povzer Grove,Howehzi,TX,76478
888,Tommy Cobb,nespa@idriip.kg,(444) 607-5282,Wagal Circle,Ledtauko,AL,30954
889,Patrick Young,bemobve@hi.fm,(231) 871-1391,Widvep Pike,Olaezfo,TN,75540
890,Antonio Matthews,webo@nuhtubheg.bi,(577) 928-2987,Gidpi Grove,Onedipkor,MT,93129
891,Carlos Blair,vasraw@mominup.gp,(363) 466-6592,Ozigi Point,Fujwajile,OH,32629
892,Clayton Graves,aputatig@weffu.za,(764) 200-2430,Ratera River,Jaopzun,ND,05549
893,Erik Reynolds,kaow@duja.gu,(729) 874-2073,Torsec Square,Jubbamlo,DC,89608
894,Gilbert Massey,pot@zu.st,(582) 526-9461,Zetud Extension,Bukiltog,ND,24049
895,Augusta Ray,jucikjaf@kilvu.ss,(348) 585-2494,Fasjag Place,Ciivfeb,MS,99425
896,Julia Davis,poh@afpa.hk,(577) 245-6552,Jibep Extension,Caztuvan,IL,24641
897,Ruby Paul,wa@no.to,(364) 733-2660,Dozbaf Terrace,Suncahom,MS,43206
898,Loretta Taylor,wauwvuw@teguje.ga,(425) 752-4972,Fovku Court,Gednaiv,MO,70197
899,Dylan Burton,opga@cezciw.my,(966) 515-6781,Ijiha Drive,Henape,MA,41546
900,Lee Stephens,gupogumi@wu.md,(843) 291-5404,Baveh Court,Haotju,MI,24401
901,Tillie Hunter,omu@wulhez.gq,(636) 777-8830,Zaiv Pass,Romiso,NH,32480
902,Craig Hodges,kurwucpa@vanij.kw,(642) 796-7626,Fadag Square,Nibudakob,WA,00755
903,Marie George,fecozeb@ihti.pk,(806) 253-2267,Ohoke Plaza,Zowanjon,CT,67564
904,Stella Barber,wo@zeepo.gg,(877) 861-7561,Ofwu Park,Bigepfo,NH,54929
905,Jesse Day,cic@zuk.nf,(550) 526-4883,Erures Circle,Jovfetasu,DC,04122
906,Maud McCarthy,vejgih@raz.bf,(834) 627-3643,Veza Trail,Cuseuhu,DC,99249
907,Clayton Sherman,ponuido@ugtuta.mx,(377) 550-3339,Isre Mill,Hazcakezo,KS,50909
908,Carolyn Jimenez,adigubet@cena.kg,(485) 489-7631,Ritom Plaza,Jacermif,NJ,93896
909,Aaron Bryant,wohfem@ovmitad.org,(617) 376-3892,Cafhu Plaza,Ofegimgi,NJ,88786
910,Travis Holmes,cu@gohne.ss,(231) 937-2782,Rekuru Lane,Laroomi,WI,10612
911,Bettie Ballard,lo@oju.bt,(274) 612-9348,Hatvo Way,Neduwno,VA,98165
912,Alice Jennings,ril@uvo.ci,(248) 513-8268,Kijrim Pike,Dezobpu,AK,47228
913,Mamie Phillips,zuudpi@ukmaza.tt,(687) 655-1210,Ugumoz Way,Nadfudo,RI,53826
914,Derrick Thomas,fuhem@sapco.kg,(710) 730-5974,Asevik Glen,Pesijit,DE,22105
915,Carrie Kennedy,zune@giwcozur.as,(589) 394-5657,Ofali Lane,Iwcasci,OH,10953
916,Marie Briggs,letus@iwu.py,(478) 422-5603,Wohu Junction,Dafvufu,NJ,70729
917,Adrian Pittman,licnowril@fuwsafje.jp,(706) 835-4509,Pezum Ridge,Evzazad,SD,88232
918,Ricardo Rios,mon@foczarav.vi,(444) 957-2182,Eckec Point,Ubwuzwuw,KY,13146
919,Annie Rhodes,cih@wuv.ng,(759) 840-8674,Lewka Extension,Ucaramle,DC,13253
920,Randall Long,sire@fen.pt,(789) 344-8516,Hupta Plaza,Esgatas,UT,47306
921,Mayme Jefferson,ut@lade.ss,(284) 920-3152,Ferles Junction,Humebhun,IA,73422
922,Bradley Schwartz,ho@hosga.kg,(314) 552-1043,Orgon Turnpike,Celgerig,NH,00883
923,Louisa Rowe,kopwo@jub.vn,(659) 791-6981,Diule Heights,Zagisauku,TN,36126
924,Mario Moore,fotpuk@zam.tj,(453) 835-2577,Evmul Square,Ziwgukur,SD,17683
925,Isaiah Murray,an@safebu.fi,(909) 551-5930,Loepi Circle,Jitbita,NY,19015
926,Troy Simon,fug@husvo.ls,(720) 367-3475,Buruji Junction,Gopgozca,NC,48403
927,Roxie Stanley,nuchabad@jodu.th,(657) 678-9615,Tecuj Pass,Gepuzap,NY,99457
928,Milton Kelley,pam@cup.pn,(555) 899-8683,Souk View,Onerope,VT,34012
929,Alta Newman,zureji@tauc.ye,(844) 947-8736,Welu Avenue,Mansupzo,OR,89330
930,Eula Robertson,no@pef.ms,(818) 354-1550,Ujava Path,Cugazzar,SC,30122
931,Susie Harper,wufcuzmi@fuzaburel.zw,(503) 573-8572,Fohri View,Kipalo,ME,11089
932,Mae Erickson,copmibi@abiaf.np,(768) 788-6252,Igoju Street,Mibohso,KY,57349
933,Marguerite Vaughn,mumoj@ruzeh.kh,(643) 987-5612,Ruraw Loop,Egjinic,TN,39207
934,Nancy Burton,ihbu@jukne.sd,(541) 554-6477,Mihfe Loop,Rinajuzu,IA,86531
935,Duane Lindsey,satofaga@cuip.gp,(610) 356-6136,Vazow Place,Mikremun,SD,78875
936,Cody Miller,laz@akvofez.in,(843) 436-6920,Ebga Court,Iboesik,OH,25637
937,Walter Luna,waig@robkok.us,(854) 880-7010,Jojib Grove,Wiecoef,GA,22802
938,Clifford Clark,faude@wiro.jo,(777) 235-7029,Wedi Center,Kovojuj,OH,85112
939,Jennie Hampton,cuad@ce.sy,(240) 337-9610,Ucocu Turnpike,Lannozvi,AZ,93616
940,Dylan Saunders,zo@calcavo.gt,(214) 754-5634,Deir Terrace,Ulmolu,MA,92718
941,Walter Cruz,iwekivih@iciar.om,(830) 288-9033,Wuga Way,Sobgekguv,DE,22616
942,Rodney Figueroa,pusohton@ig.co.uk,(868) 522-2001,Hoclak Pass,Jovgeud,FL,37450
943,Leonard Dixon,butu@meblatov.pn,(661) 977-6895,Fecag Pass,Rakfalte,CA,59715
944,Justin Chapman,pecrugo@butpum.mq,(313) 460-9652,Hedi Place,Hedheget,NJ,65992
945,Evan Murphy,ked@nurabak.gu,(606) 285-8987,Acka Turnpike,Odovdu,DC,47452
946,Caleb Grant,booczer@nuido.ma,(847) 803-2763,Jomsas Avenue,Wingehoz,KY,25513
947,Alberta Franklin,hoaret@mictu.je,(753) 240-3404,Fejgi Trail,Hajugu,LA,92761
948,Nathaniel Griffith,sebec@uje.td,(716) 883-4900,Mekoc Heights,Ovagilmuh,SD,73354
949,Jeff Padilla,iju@ilehigsu.ly,(915) 472-2444,Docu Court,Ijmoola,WY,86102
950,Katie Rowe,ololuami@ferapmim.cf,(473) 627-7837,Ronab Glen,Cugocov,RI,00746
951,Francis Allison,zinvid@iluivulu.za,(306) 566-7389,Igotug Lane,Imiwipac,MA,46998
952,Vincent Carroll,zubum@nafib.tz,(717) 742-7821,Ritbab Lane,Torosaguz,AZ,60674
953,Elijah Young,faf@japfib.mx,(755) 442-1216,Dappu Lane,Totece,NE,00953
954,Minnie Montgomery,wudogtip@zotaliaho.pg,(672) 385-5827,Cacfe Mill,Jeoloezi,RI,70958
955,Daniel Simmons,cuprin@mu.ck,(939) 478-6215,Warhu Court,Beedodu,PA,57241
956,Albert Turner,so@bueno.kg,(709) 631-1467,Docoj River,Duwosbud,MT,02146
957,Caroline Hunt,maladjew@gopereco.mx,(782) 422-8976,Zuan Highway,Vufikahi,MT,63024
958,Mollie Scott,barmalso@fi.bv,(753) 706-8761,Tekgej Glen,Kamacu,MA,80941
959,Fannie Reed,moroju@ho.ug,(661) 359-4509,Mita Square,Zeganuog,RI,02802
960,Jim Chavez,hako@ur.bb,(989) 531-6157,Tefni Manor,Kelodit,FL,93752
961,Edith Guzman,wem@kalwi.mp,(282) 495-4076,Tudem Mill,Amifuwez,NE,35661
962,Lena Griffin,vev@raratibu.gi,(542) 520-8515,Ziru Plaza,Bubbuca,CO,48666
963,Jordan Schneider,lifra@vabdus.lt,(923) 600-3908,Dosem River,Hedeve,NY,53724
964,Alex Yates,vi@miacoobu.ws,(710) 326-4578,Supwih Place,Okenivwod,NV,36687
965,Ina Evans,zopni@ralsajdu.kz,(462) 343-1805,Vuvce Court,Paoludal,TN,90501
966,Noah Reyes,fate@hi.su,(686) 886-5687,Gebsij Pass,Ifkewve,UT,89479
967,Gordon Gibson,zofun@moj.edu,(269) 808-4190,Renlu Pike,Wadakvi,WA,81424
968,Georgie Burgess,suabu@iwmigut.bh,(789) 957-2341,Lufe Parkway,Zecahole,ND,38432
969,Jacob Wade,wuhwuge@de.cz,(330) 394-5312,Rava Heights,Bedkonow,NC,30533
970,Bess Cox,uracaw@ur.tf,(924) 984-1137,Fovzet Pass,Ezdosa,IA,10287
971,Gilbert Marshall,puncu@irmoz.pe,(553) 655-4210,Govit Grove,Hadajfum,CA,54353
972,Willie Kelley,limul@umoluk.sa,(430) 985-4252,Jecmih Point,Uluzugka,OH,63086
973,Nora Phelps,hewibif@afuzu.ls,(634) 836-6105,Nija Glen,Tudusim,FL,71878
974,Theresa Clark,otitca@gokijuta.cg,(246) 229-8722,Etiwu Extension,Udfiljo,ID,26466
975,Estella Hammond,nujebij@kebah.np,(373) 531-7624,Falgit Turnpike,Howemvuw,ND,75668
976,Georgie Freeman,dudfu@fupdol.sn,(270) 983-1525,Guwmi Manor,Epperziw,ID,44651
977,Annie Alvarado,weftise@relurale.ke,(259) 894-2986,Uppot Mill,Peculac,VT,96642
978,Alan Dunn,omkuwno@wucek.vn,(912) 430-4964,Owawul View,Ivewuvge,OK,35410
979,Lawrence Arnold,ecezocban@caj.gt,(930) 268-1499,Ishaz Park,Luwreezo,MS,29668
980,Ora Tucker,lagkettir@tit.gp,(289) 698-1321,Zebhos Lane,Cigere,VT,50115
981,Mittie Rivera,lesroh@icrarev.it,(519) 261-5008,Livad River,Ojefare,TN,55556
982,Raymond Estrada,bofituen@bizdako.ng,(414) 902-2590,Asom Parkway,Osizaruf,IA,17415
983,Adam Jennings,sespil@hogwa.lu,(706) 487-3307,Kacar Trail,Ikiunkus,NV,64067
984,Lenora Rodriguez,kohhahe@alasi.dz,(901) 420-5151,Adiveg Loop,Bowizvup,WY,79574
985,Lulu Chavez,ladtuw@upoiw.il,(709) 574-3027,Haljem Way,Reohvo,GA,24856
986,Viola Crawford,vavoun@loh.ke,(875) 900-3293,Badul Terrace,Fulsehri,VT,21748
987,Martin Tate,er@new.cd,(634) 788-9597,Nawzew Pass,Zatesweb,CO,77776
988,Emily Schultz,vigkiv@kus.id,(850) 543-1171,Emana Terrace,Vepehwam,CO,45948
989,Theodore Delgado,wa@sebwifu.hu,(423) 817-6403,Jegu Mill,Usalodig,DE,37696
990,Lucinda Malone,ipo@vaop.ci,(916) 395-1827,Kowzah Path,Nibaguf,MN,59453
991,James Woods,isotakze@velaseh.sg,(720) 842-8026,Mime Point,Davpimgo,ME,83728
992,Abbie Casey,jodtar@oju.mz,(817) 712-2021,Jivam Drive,Siuget,ND,03772
993,Derrick Mills,tabektah@hu.tz,(943) 863-2216,Igoden Grove,Mokura,SD,82528
994,Dorothy Kim,huas@suanate.mo,(668) 447-3956,Ipfa Center,Umiadlo,IL,42224
995,Joe Collier,vocampe@pena.id,(644) 684-2573,Ihukaw Manor,Humiah,PA,67582
996,Garrett Hayes,bil@zuesauti.jm,(788) 428-6650,Womab Heights,Hafhervo,CT,99078
997,Nettie Carroll,duiwiaf@bataaze.gy,(638) 592-2795,Fihsih River,Cizkawju,ID,14116
998,Joe Cain,apilev@el.fi,(747) 830-5392,Efodap Drive,Lisawvis,WY,37934
999,Mattie Phelps,zuussec@wo.gp,(581) 377-3710,Cazev Heights,Ritascov,DE,93622
1000,Clyde Taylor,fig@pab.sl,(224) 549-4159,Ozju Terrace,Uhoivdog,NJ,92948
